{"type": "FeatureCollection", "features": [{"type": "Feature", "geometry": {"type": "Polygon", "coordinates": [[[67.50000004390951, 23.000000020298884], [69.00000000379057, 22.999999964552654], [69.00000000379057, 23.999999958129575], [67.50000004390951, 23.999999973666306], [67.50000004390951, 23.000000020298884]]]}, "id": "00000000000000008829", "properties": {"name": "NF-42-V-B"}}, {"type": "Feature", "geometry": {"type": "Polygon", "coordinates": [[[67.50000004390951, 22.000000044153886], [69.00000000379057, 21.99999998782226], [69.00000000379057, 22.999999964552654], [67.50000004390951, 23.000000020298884], [67.50000004390951, 22.000000044153886]]]}, "id": "0000000000000000882b", "properties": {"name": "NF-42-V-D"}}, {"type": "Feature", "geometry": {"type": "Polygon", "coordinates": [[[69.00000000379057, 22.999999964552654], [70.50000003014249, 22.999999974613047], [70.50000003014249, 23.999999991793022], [69.00000000379057, 23.999999958129575], [69.00000000379057, 22.999999964552654]]]}, "id": "0000000000000000882c", "properties": {"name": "NF-42-X-A"}}, {"type": "Feature", "geometry": {"type": "Polygon", "coordinates": [[[70.50000003014249, 22.999999974613047], [71.9999999820638, 22.99999999554772], [71.9999999820638, 23.999999972409487], [70.50000003014249, 23.999999991793022], [70.50000003014249, 22.999999974613047]]]}, "id": "0000000000000000882d", "properties": {"name": "NF-42-X-B"}}, {"type": "Feature", "geometry": {"type": "Polygon", "coordinates": [[[69.00000000379057, 21.99999998782226], [70.50000003014249, 22.000000014018752], [70.50000003014249, 22.999999974613047], [69.00000000379057, 22.999999964552654], [69.00000000379057, 21.99999998782226]]]}, "id": "0000000000000000882e", "properties": {"name": "NF-42-X-C"}}, {"type": "Feature", "geometry": {"type": "Polygon", "coordinates": [[[70.50000003014249, 22.000000014018752], [71.9999999820638, 21.999999955236618], [71.9999999820638, 22.99999999554772], [70.50000003014249, 22.999999974613047], [70.50000003014249, 22.000000014018752]]]}, "id": "0000000000000000882f", "properties": {"name": "NF-42-X-D"}}, {"type": "Feature", "geometry": {"type": "Polygon", "coordinates": [[[69.00000000379056, 21.00000001205804], [70.50000003014249, 21.000000029353735], [70.50000003014249, 22.000000014018752], [69.00000000379057, 21.99999998782226], [69.00000000379056, 21.00000001205804]]]}, "id": "00000000000000008834", "properties": {"name": "NF-42-Z-A"}}, {"type": "Feature", "geometry": {"type": "Polygon", "coordinates": [[[70.50000003014249, 21.000000029353735], [71.9999999820638, 21.000000039512397], [71.9999999820638, 21.999999955236618], [70.50000003014249, 22.000000014018752], [70.50000003014249, 21.000000029353735]]]}, "id": "00000000000000008835", "properties": {"name": "NF-42-Z-B"}}, {"type": "Feature", "geometry": {"type": "Polygon", "coordinates": [[[69.00000000379057, 20.000000008979224], [70.50000003014249, 20.000000025017872], [70.50000003014249, 21.000000029353735], [69.00000000379056, 21.00000001205804], [69.00000000379057, 20.000000008979224]]]}, "id": "00000000000000008836", "properties": {"name": "NF-42-Z-C"}}, {"type": "Feature", "geometry": {"type": "Polygon", "coordinates": [[[70.50000003014249, 20.000000025017872], [71.9999999820638, 19.999999959597368], [71.9999999820638, 21.000000039512397], [70.50000003014249, 21.000000029353735], [70.50000003014249, 20.000000025017872]]]}, "id": "00000000000000008837", "properties": {"name": "NF-42-Z-D"}}, {"type": "Feature", "geometry": {"type": "Polygon", "coordinates": [[[69.00000000379057, 26.999999984940988], [70.50000003014249, 27.000000046364676], [70.50000003014249, 27.999999973675074], [69.00000000379057, 28.000000032802568], [69.00000000379057, 26.999999984940988]]]}, "id": "0000000000000000883c", "properties": {"name": "NG-42-X-A"}}, {"type": "Feature", "geometry": {"type": "Polygon", "coordinates": [[[70.50000003014249, 27.000000046364676], [71.9999999820638, 26.999999998945235], [71.9999999820638, 27.999999972848602], [70.50000003014249, 27.999999973675074], [70.50000003014249, 27.000000046364676]]]}, "id": "0000000000000000883d", "properties": {"name": "NG-42-X-B"}}, {"type": "Feature", "geometry": {"type": "Polygon", "coordinates": [[[69.00000000379057, 26.000000039725204], [70.50000003014249, 25.99999996138381], [70.50000003014249, 27.000000046364676], [69.00000000379057, 26.999999984940988], [69.00000000379057, 26.000000039725204]]]}, "id": "0000000000000000883e", "properties": {"name": "NG-42-X-C"}}, {"type": "Feature", "geometry": {"type": "Polygon", "coordinates": [[[70.50000003014249, 25.99999996138381], [71.9999999820638, 25.999999980277284], [71.9999999820638, 26.999999998945235], [70.50000003014249, 27.000000046364676], [70.50000003014249, 25.99999996138381]]]}, "id": "0000000000000000883f", "properties": {"name": "NG-42-X-D"}}, {"type": "Feature", "geometry": {"type": "Polygon", "coordinates": [[[67.50000004390951, 23.999999973666306], [69.00000000379057, 23.999999958129575], [69.00000000379056, 25.00000004276317], [67.50000004390951, 25.00000003313798], [67.50000004390951, 23.999999973666306]]]}, "id": "00000000000000008843", "properties": {"name": "NG-42-Y-D"}}, {"type": "Feature", "geometry": {"type": "Polygon", "coordinates": [[[69.00000000379056, 25.00000004276317], [70.50000003014249, 25.000000016547247], [70.50000003014249, 25.99999996138381], [69.00000000379057, 26.000000039725204], [69.00000000379056, 25.00000004276317]]]}, "id": "00000000000000008844", "properties": {"name": "NG-42-Z-A"}}, {"type": "Feature", "geometry": {"type": "Polygon", "coordinates": [[[70.50000003014249, 25.000000016547247], [71.9999999820638, 25.000000026276513], [71.9999999820638, 25.999999980277284], [70.50000003014249, 25.99999996138381], [70.50000003014249, 25.000000016547247]]]}, "id": "00000000000000008845", "properties": {"name": "NG-42-Z-B"}}, {"type": "Feature", "geometry": {"type": "Polygon", "coordinates": [[[69.00000000379057, 23.999999958129575], [70.50000003014249, 23.999999991793022], [70.50000003014249, 25.000000016547247], [69.00000000379056, 25.00000004276317], [69.00000000379057, 23.999999958129575]]]}, "id": "00000000000000008846", "properties": {"name": "NG-42-Z-C"}}, {"type": "Feature", "geometry": {"type": "Polygon", "coordinates": [[[70.50000003014249, 23.999999991793022], [71.9999999820638, 23.999999972409487], [71.9999999820638, 25.000000026276513], [70.50000003014249, 25.000000016547247], [70.50000003014249, 23.999999991793022]]]}, "id": "00000000000000008847", "properties": {"name": "NG-42-Z-D"}}, {"type": "Feature", "geometry": {"type": "Polygon", "coordinates": [[[69.00000000379057, 28.000000032802568], [70.50000003014249, 27.999999973675074], [70.50000003014249, 29.000000000915257], [69.00000000379056, 29.000000022588278], [69.00000000379057, 28.000000032802568]]]}, "id": "00000000000000008856", "properties": {"name": "NH-42-Z-C"}}, {"type": "Feature", "geometry": {"type": "Polygon", "coordinates": [[[70.50000003014249, 27.999999973675074], [71.9999999820638, 27.999999972848602], [71.9999999820638, 29.00000003053716], [70.50000003014249, 29.000000000915257], [70.50000003014249, 27.999999973675074]]]}, "id": "00000000000000008857", "properties": {"name": "NH-42-Z-D"}}, {"type": "Feature", "geometry": {"type": "Polygon", "coordinates": [[[71.9999999820638, 10.999999991749018], [73.50000002302902, 10.99999995980436], [73.50000002302902, 11.999999986346703], [71.9999999820638, 12.000000001240288], [71.9999999820638, 10.999999991749018]]]}, "id": "00000000000000008958", "properties": {"name": "NC-43-V-A"}}, {"type": "Feature", "geometry": {"type": "Polygon", "coordinates": [[[71.9999999820638, 10.000000022796277], [73.50000002302902, 10.000000022138952], [73.50000002302902, 10.99999995980436], [71.9999999820638, 10.999999991749018], [71.9999999820638, 10.000000022796277]]]}, "id": "0000000000000000895a", "properties": {"name": "NC-43-V-C"}}, {"type": "Feature", "geometry": {"type": "Polygon", "coordinates": [[[73.50000002302902, 10.000000022138952], [75.00000003143836, 10.00000002981436], [75.00000003143836, 10.999999999062219], [73.50000002302902, 10.99999995980436], [73.50000002302902, 10.000000022138952]]]}, "id": "0000000000000000895b", "properties": {"name": "NC-43-V-D"}}, {"type": "Feature", "geometry": {"type": "Polygon", "coordinates": [[[75.00000003143836, 10.999999999062219], [76.50000002448334, 10.99999996255239], [76.50000002448334, 12.000000036303224], [75.00000003143836, 12.000000004900329], [75.00000003143836, 10.999999999062219]]]}, "id": "0000000000000000895c", "properties": {"name": "NC-43-X-A"}}, {"type": "Feature", "geometry": {"type": "Polygon", "coordinates": [[[76.50000002448334, 10.99999996255239], [77.99999996816005, 10.999999990763872], [77.99999996816005, 11.999999982952987], [76.50000002448334, 12.000000036303224], [76.50000002448334, 10.99999996255239]]]}, "id": "0000000000000000895d", "properties": {"name": "NC-43-X-B"}}, {"type": "Feature", "geometry": {"type": "Polygon", "coordinates": [[[75.00000003143836, 10.00000002981436], [76.50000002448334, 10.000000036002406], [76.50000002448334, 10.99999996255239], [75.00000003143836, 10.999999999062219], [75.00000003143836, 10.00000002981436]]]}, "id": "0000000000000000895e", "properties": {"name": "NC-43-X-C"}}, {"type": "Feature", "geometry": {"type": "Polygon", "coordinates": [[[76.50000002448334, 10.000000036002406], [77.99999996816005, 10.000000005398741], [77.99999996816005, 10.999999990763872], [76.50000002448334, 10.99999996255239], [76.50000002448334, 10.000000036002406]]]}, "id": "0000000000000000895f", "properties": {"name": "NC-43-X-D"}}, {"type": "Feature", "geometry": {"type": "Polygon", "coordinates": [[[71.9999999820638, 7.999999988703714], [73.500000023029, 8.0000000083759], [73.50000002302902, 9.00000004163897], [71.9999999820638, 8.999999967496414], [71.9999999820638, 7.999999988703714]]]}, "id": "00000000000000008962", "properties": {"name": "NC-43-Y-C"}}, {"type": "Feature", "geometry": {"type": "Polygon", "coordinates": [[[75.00000003143836, 9.000000034857742], [76.50000002448334, 9.000000004118961], [76.50000002448334, 10.000000036002406], [75.00000003143836, 10.00000002981436], [75.00000003143836, 9.000000034857742]]]}, "id": "00000000000000008964", "properties": {"name": "NC-43-Z-A"}}, {"type": "Feature", "geometry": {"type": "Polygon", "coordinates": [[[76.50000002448334, 9.000000004118961], [77.99999996816005, 9.000000010507287], [77.99999996816005, 10.000000005398741], [76.50000002448334, 10.000000036002406], [76.50000002448334, 9.000000004118961]]]}, "id": "00000000000000008965", "properties": {"name": "NC-43-Z-B"}}, {"type": "Feature", "geometry": {"type": "Polygon", "coordinates": [[[76.50000002448334, 7.999999998545482], [77.99999996816005, 8.000000036117237], [77.99999996816005, 9.000000010507287], [76.50000002448334, 9.000000004118961], [76.50000002448334, 7.999999998545482]]]}, "id": "00000000000000008967", "properties": {"name": "NC-43-Z-D"}}, {"type": "Feature", "geometry": {"type": "Polygon", "coordinates": [[[71.9999999820638, 15.000000023146244], [73.50000002302902, 14.999999988949245], [73.50000002302902, 15.999999990823433], [71.9999999820638, 15.999999967568453], [71.9999999820638, 15.000000023146244]]]}, "id": "00000000000000008968", "properties": {"name": "ND-43-V-A"}}, {"type": "Feature", "geometry": {"type": "Polygon", "coordinates": [[[73.50000002302902, 14.999999988949245], [75.00000003143836, 14.999999975402092], [75.00000003143836, 15.999999970837273], [73.50000002302902, 15.999999990823433], [73.50000002302902, 14.999999988949245]]]}, "id": "00000000000000008969", "properties": {"name": "ND-43-V-B"}}, {"type": "Feature", "geometry": {"type": "Polygon", "coordinates": [[[73.50000002302902, 13.999999980198254], [75.00000003143836, 13.999999976337405], [75.00000003143836, 14.999999975402092], [73.50000002302902, 14.999999988949245], [73.50000002302902, 13.999999980198254]]]}, "id": "0000000000000000896b", "properties": {"name": "ND-43-V-D"}}, {"type": "Feature", "geometry": {"type": "Polygon", "coordinates": [[[75.00000003143836, 14.999999975402092], [76.50000002448334, 14.99999998507475], [76.50000002448334, 16.00000004240557], [75.00000003143836, 15.999999970837273], [75.00000003143836, 14.999999975402092]]]}, "id": "0000000000000000896c", "properties": {"name": "ND-43-X-A"}}, {"type": "Feature", "geometry": {"type": "Polygon", "coordinates": [[[76.50000002448334, 14.99999998507475], [77.99999996816005, 15.000000006147905], [77.99999996816005, 16.00000002366034], [76.50000002448334, 16.00000004240557], [76.50000002448334, 14.99999998507475]]]}, "id": "0000000000000000896d", "properties": {"name": "ND-43-X-B"}}, {"type": "Feature", "geometry": {"type": "Polygon", "coordinates": [[[75.00000003143836, 13.999999976337405], [76.50000002448334, 13.999999988331144], [76.50000002448334, 14.99999998507475], [75.00000003143836, 14.999999975402092], [75.00000003143836, 13.999999976337405]]]}, "id": "0000000000000000896e", "properties": {"name": "ND-43-X-C"}}, {"type": "Feature", "geometry": {"type": "Polygon", "coordinates": [[[76.50000002448334, 13.999999988331144], [77.99999996816005, 13.999999959440263], [77.99999996816005, 15.000000006147905], [76.50000002448334, 14.99999998507475], [76.50000002448334, 13.999999988331144]]]}, "id": "0000000000000000896f", "properties": {"name": "ND-43-X-D"}}, {"type": "Feature", "geometry": {"type": "Polygon", "coordinates": [[[73.50000002302902, 13.000000042478261], [75.00000003143836, 13.00000003393048], [75.00000003143836, 13.999999976337405], [73.50000002302902, 13.999999980198254], [73.50000002302902, 13.000000042478261]]]}, "id": "00000000000000008971", "properties": {"name": "ND-43-Y-B"}}, {"type": "Feature", "geometry": {"type": "Polygon", "coordinates": [[[73.50000002302902, 11.999999986346703], [75.00000003143836, 12.000000004900329], [75.00000003143836, 13.00000003393048], [73.50000002302902, 13.000000042478261], [73.50000002302902, 11.999999986346703]]]}, "id": "00000000000000008973", "properties": {"name": "ND-43-Y-D"}}, {"type": "Feature", "geometry": {"type": "Polygon", "coordinates": [[[75.00000003143836, 13.00000003393048], [76.50000002448334, 12.999999959869662], [76.50000002448334, 13.999999988331144], [75.00000003143836, 13.999999976337405], [75.00000003143836, 13.00000003393048]]]}, "id": "00000000000000008974", "properties": {"name": "ND-43-Z-A"}}, {"type": "Feature", "geometry": {"type": "Polygon", "coordinates": [[[76.50000002448334, 12.999999959869662], [77.99999996816005, 12.99999998066194], [77.99999996816005, 13.999999959440263], [76.50000002448334, 13.999999988331144], [76.50000002448334, 12.999999959869662]]]}, "id": "00000000000000008975", "properties": {"name": "ND-43-Z-B"}}, {"type": "Feature", "geometry": {"type": "Polygon", "coordinates": [[[75.00000003143836, 12.000000004900329], [76.50000002448334, 12.000000036303224], [76.50000002448334, 12.999999959869662], [75.00000003143836, 13.00000003393048], [75.00000003143836, 12.000000004900329]]]}, "id": "00000000000000008976", "properties": {"name": "ND-43-Z-C"}}, {"type": "Feature", "geometry": {"type": "Polygon", "coordinates": [[[76.50000002448334, 12.000000036303224], [77.99999996816005, 11.999999982952987], [77.99999996816005, 12.99999998066194], [76.50000002448334, 12.999999959869662], [76.50000002448334, 12.000000036303224]]]}, "id": "00000000000000008977", "properties": {"name": "ND-43-Z-D"}}, {"type": "Feature", "geometry": {"type": "Polygon", "coordinates": [[[71.9999999820638, 18.999999987230222], [73.50000002302902, 19.00000003705989], [73.50000002302902, 20.000000008736937], [71.9999999820638, 19.999999959597368], [71.9999999820638, 18.999999987230222]]]}, "id": "00000000000000008978", "properties": {"name": "NE-43-V-A"}}, {"type": "Feature", "geometry": {"type": "Polygon", "coordinates": [[[73.50000002302902, 19.00000003705989], [75.00000003143836, 18.99999999230382], [75.00000003143836, 20.000000041117993], [73.50000002302902, 20.000000008736937], [73.50000002302902, 19.00000003705989]]]}, "id": "00000000000000008979", "properties": {"name": "NE-43-V-B"}}, {"type": "Feature", "geometry": {"type": "Polygon", "coordinates": [[[71.9999999820638, 18.000000032467266], [73.50000002302902, 17.99999998357242], [73.50000002302902, 19.00000003705989], [71.9999999820638, 18.999999987230222], [71.9999999820638, 18.000000032467266]]]}, "id": "0000000000000000897a", "properties": {"name": "NE-43-V-C"}}, {"type": "Feature", "geometry": {"type": "Polygon", "coordinates": [[[73.50000002302902, 17.99999998357242], [75.00000003143836, 18.00000000302778], [75.00000003143836, 18.99999999230382], [73.50000002302902, 19.00000003705989], [73.50000002302902, 17.99999998357242]]]}, "id": "0000000000000000897b", "properties": {"name": "NE-43-V-D"}}, {"type": "Feature", "geometry": {"type": "Polygon", "coordinates": [[[75.00000003143836, 18.99999999230382], [76.50000002448334, 19.000000001968832], [76.50000002448334, 20.000000028686706], [75.00000003143836, 20.000000041117993], [75.00000003143836, 18.99999999230382]]]}, "id": "0000000000000000897c", "properties": {"name": "NE-43-X-A"}}, {"type": "Feature", "geometry": {"type": "Polygon", "coordinates": [[[76.50000002448334, 19.000000001968832], [77.99999996816005, 19.000000040799623], [77.99999996816005, 19.999999977904217], [76.50000002448334, 20.000000028686706], [76.50000002448334, 19.000000001968832]]]}, "id": "0000000000000000897d", "properties": {"name": "NE-43-X-B"}}, {"type": "Feature", "geometry": {"type": "Polygon", "coordinates": [[[75.00000003143836, 18.00000000302778], [76.50000002448334, 18.000000041877847], [76.50000002448334, 19.000000001968832], [75.00000003143836, 18.99999999230382], [75.00000003143836, 18.00000000302778]]]}, "id": "0000000000000000897e", "properties": {"name": "NE-43-X-C"}}, {"type": "Feature", "geometry": {"type": "Polygon", "coordinates": [[[76.50000002448334, 18.000000041877847], [77.99999996816005, 17.999999962975814], [77.99999996816005, 19.000000040799623], [76.50000002448334, 19.000000001968832], [76.50000002448334, 18.000000041877847]]]}, "id": "0000000000000000897f", "properties": {"name": "NE-43-X-D"}}, {"type": "Feature", "geometry": {"type": "Polygon", "coordinates": [[[71.9999999820638, 16.999999982881878], [73.50000002302902, 17.000000033304687], [73.50000002302902, 17.99999998357242], [71.9999999820638, 18.000000032467266], [71.9999999820638, 16.999999982881878]]]}, "id": "00000000000000008980", "properties": {"name": "NE-43-Y-A"}}, {"type": "Feature", "geometry": {"type": "Polygon", "coordinates": [[[73.50000002302902, 17.000000033304687], [75.00000003143836, 16.999999964852822], [75.00000003143836, 18.00000000302778], [73.50000002302902, 17.99999998357242], [73.50000002302902, 17.000000033304687]]]}, "id": "00000000000000008981", "properties": {"name": "NE-43-Y-B"}}, {"type": "Feature", "geometry": {"type": "Polygon", "coordinates": [[[71.9999999820638, 15.999999967568453], [73.50000002302902, 15.999999990823433], [73.50000002302902, 17.000000033304687], [71.9999999820638, 16.999999982881878], [71.9999999820638, 15.999999967568453]]]}, "id": "00000000000000008982", "properties": {"name": "NE-43-Y-C"}}, {"type": "Feature", "geometry": {"type": "Polygon", "coordinates": [[[73.50000002302902, 15.999999990823433], [75.00000003143836, 15.999999970837273], [75.00000003143836, 16.999999964852822], [73.50000002302902, 17.000000033304687], [73.50000002302902, 15.999999990823433]]]}, "id": "00000000000000008983", "properties": {"name": "NE-43-Y-D"}}, {"type": "Feature", "geometry": {"type": "Polygon", "coordinates": [[[75.00000003143836, 16.999999964852822], [76.50000002448334, 16.999999998345814], [76.50000002448334, 18.000000041877847], [75.00000003143836, 18.00000000302778], [75.00000003143836, 16.999999964852822]]]}, "id": "00000000000000008984", "properties": {"name": "NE-43-Z-A"}}, {"type": "Feature", "geometry": {"type": "Polygon", "coordinates": [[[76.50000002448334, 16.999999998345814], [77.99999996816005, 16.999999956676398], [77.99999996816005, 17.999999962975814], [76.50000002448334, 18.000000041877847], [76.50000002448334, 16.999999998345814]]]}, "id": "00000000000000008985", "properties": {"name": "NE-43-Z-B"}}, {"type": "Feature", "geometry": {"type": "Polygon", "coordinates": [[[75.00000003143836, 15.999999970837273], [76.50000002448334, 16.00000004240557], [76.50000002448334, 16.999999998345814], [75.00000003143836, 16.999999964852822], [75.00000003143836, 15.999999970837273]]]}, "id": "00000000000000008986", "properties": {"name": "NE-43-Z-C"}}, {"type": "Feature", "geometry": {"type": "Polygon", "coordinates": [[[76.50000002448334, 16.00000004240557], [77.99999996816005, 16.00000002366034], [77.99999996816005, 16.999999956676398], [76.50000002448334, 16.999999998345814], [76.50000002448334, 16.00000004240557]]]}, "id": "00000000000000008987", "properties": {"name": "NE-43-Z-D"}}, {"type": "Feature", "geometry": {"type": "Polygon", "coordinates": [[[71.9999999820638, 22.99999999554772], [73.50000002302902, 22.99999998556996], [73.500000023029, 24.00000002291237], [71.9999999820638, 23.999999972409487], [71.9999999820638, 22.99999999554772]]]}, "id": "00000000000000008988", "properties": {"name": "NF-43-V-A"}}, {"type": "Feature", "geometry": {"type": "Polygon", "coordinates": [[[73.50000002302902, 22.99999998556996], [75.00000003143836, 23.00000002195987], [75.00000003143836, 24.000000030970646], [73.500000023029, 24.00000002291237], [73.50000002302902, 22.99999998556996]]]}, "id": "00000000000000008989", "properties": {"name": "NF-43-V-B"}}, {"type": "Feature", "geometry": {"type": "Polygon", "coordinates": [[[71.9999999820638, 21.999999955236618], [73.50000002302902, 21.999999996007208], [73.50000002302902, 22.99999998556996], [71.9999999820638, 22.99999999554772], [71.9999999820638, 21.999999955236618]]]}, "id": "0000000000000000898a", "properties": {"name": "NF-43-V-C"}}, {"type": "Feature", "geometry": {"type": "Polygon", "coordinates": [[[73.50000002302902, 21.999999996007208], [75.00000003143836, 22.000000029213027], [75.00000003143836, 23.00000002195987], [73.50000002302902, 22.99999998556996], [73.50000002302902, 21.999999996007208]]]}, "id": "0000000000000000898b", "properties": {"name": "NF-43-V-D"}}, {"type": "Feature", "geometry": {"type": "Polygon", "coordinates": [[[75.00000003143836, 23.00000002195987], [76.50000002448334, 22.999999967970233], [76.50000002448334, 23.999999964255633], [75.00000003143836, 24.000000030970646], [75.00000003143836, 23.00000002195987]]]}, "id": "0000000000000000898c", "properties": {"name": "NF-43-X-A"}}, {"type": "Feature", "geometry": {"type": "Polygon", "coordinates": [[[76.50000002448334, 22.999999967970233], [77.99999996816005, 22.999999990925875], [77.99999996816005, 23.999999964546518], [76.50000002448334, 23.999999964255633], [76.50000002448334, 22.999999967970233]]]}, "id": "0000000000000000898d", "properties": {"name": "NF-43-X-B"}}, {"type": "Feature", "geometry": {"type": "Polygon", "coordinates": [[[75.00000003143836, 22.000000029213027], [76.50000002448334, 21.999999988572828], [76.50000002448334, 22.999999967970233], [75.00000003143836, 23.00000002195987], [75.00000003143836, 22.000000029213027]]]}, "id": "0000000000000000898e", "properties": {"name": "NF-43-X-C"}}, {"type": "Feature", "geometry": {"type": "Polygon", "coordinates": [[[76.50000002448334, 21.999999988572828], [77.99999996816005, 21.99999999777841], [77.99999996816005, 22.999999990925875], [76.50000002448334, 22.999999967970233], [76.50000002448334, 21.999999988572828]]]}, "id": "0000000000000000898f", "properties": {"name": "NF-43-X-D"}}, {"type": "Feature", "geometry": {"type": "Polygon", "coordinates": [[[71.9999999820638, 21.000000039512397], [73.50000002302902, 21.000000025404425], [73.50000002302902, 21.999999996007208], [71.9999999820638, 21.999999955236618], [71.9999999820638, 21.000000039512397]]]}, "id": "00000000000000008990", "properties": {"name": "NF-43-Y-A"}}, {"type": "Feature", "geometry": {"type": "Polygon", "coordinates": [[[73.50000002302902, 21.000000025404425], [75.00000003143836, 20.999999994769876], [75.00000003143836, 22.000000029213027], [73.50000002302902, 21.999999996007208], [73.50000002302902, 21.000000025404425]]]}, "id": "00000000000000008991", "properties": {"name": "NF-43-Y-B"}}, {"type": "Feature", "geometry": {"type": "Polygon", "coordinates": [[[71.9999999820638, 19.999999959597368], [73.50000002302902, 20.000000008736937], [73.50000002302902, 21.000000025404425], [71.9999999820638, 21.000000039512397], [71.9999999820638, 19.999999959597368]]]}, "id": "00000000000000008992", "properties": {"name": "NF-43-Y-C"}}, {"type": "Feature", "geometry": {"type": "Polygon", "coordinates": [[[73.50000002302902, 20.000000008736937], [75.00000003143836, 20.000000041117993], [75.00000003143836, 20.999999994769876], [73.50000002302902, 21.000000025404425], [73.50000002302902, 20.000000008736937]]]}, "id": "00000000000000008993", "properties": {"name": "NF-43-Y-D"}}, {"type": "Feature", "geometry": {"type": "Polygon", "coordinates": [[[75.00000003143836, 20.999999994769876], [76.50000002448334, 21.000000015892585], [76.50000002448334, 21.999999988572828], [75.00000003143836, 22.000000029213027], [75.00000003143836, 20.999999994769876]]]}, "id": "00000000000000008994", "properties": {"name": "NF-43-Z-A"}}, {"type": "Feature", "geometry": {"type": "Polygon", "coordinates": [[[76.50000002448334, 21.000000015892585], [77.99999996816005, 20.99999998919987], [77.99999996816005, 21.99999999777841], [76.50000002448334, 21.999999988572828], [76.50000002448334, 21.000000015892585]]]}, "id": "00000000000000008995", "properties": {"name": "NF-43-Z-B"}}, {"type": "Feature", "geometry": {"type": "Polygon", "coordinates": [[[75.00000003143836, 20.000000041117993], [76.50000002448334, 20.000000028686706], [76.50000002448334, 21.000000015892585], [75.00000003143836, 20.999999994769876], [75.00000003143836, 20.000000041117993]]]}, "id": "00000000000000008996", "properties": {"name": "NF-43-Z-C"}}, {"type": "Feature", "geometry": {"type": "Polygon", "coordinates": [[[76.50000002448334, 20.000000028686706], [77.99999996816005, 19.999999977904217], [77.99999996816005, 20.99999998919987], [76.50000002448334, 21.000000015892585], [76.50000002448334, 20.000000028686706]]]}, "id": "00000000000000008997", "properties": {"name": "NF-43-Z-D"}}, {"type": "Feature", "geometry": {"type": "Polygon", "coordinates": [[[71.9999999820638, 26.999999998945235], [73.50000002302902, 27.000000020355195], [73.50000002302902, 28.00000002489673], [71.9999999820638, 27.999999972848602], [71.9999999820638, 26.999999998945235]]]}, "id": "00000000000000008998", "properties": {"name": "NG-43-V-A"}}, {"type": "Feature", "geometry": {"type": "Polygon", "coordinates": [[[73.50000002302902, 27.000000020355195], [75.00000003143836, 26.999999981748132], [75.00000003143836, 27.999999963505974], [73.50000002302902, 28.00000002489673], [73.50000002302902, 27.000000020355195]]]}, "id": "00000000000000008999", "properties": {"name": "NG-43-V-B"}}, {"type": "Feature", "geometry": {"type": "Polygon", "coordinates": [[[71.9999999820638, 25.999999980277284], [73.50000002302902, 25.999999999453433], [73.50000002302902, 27.000000020355195], [71.9999999820638, 26.999999998945235], [71.9999999820638, 25.999999980277284]]]}, "id": "0000000000000000899a", "properties": {"name": "NG-43-V-C"}}, {"type": "Feature", "geometry": {"type": "Polygon", "coordinates": [[[73.50000002302902, 25.999999999453433], [75.00000003143836, 25.999999998559872], [75.00000003143836, 26.999999981748132], [73.50000002302902, 27.000000020355195], [73.50000002302902, 25.999999999453433]]]}, "id": "0000000000000000899b", "properties": {"name": "NG-43-V-D"}}, {"type": "Feature", "geometry": {"type": "Polygon", "coordinates": [[[75.00000003143836, 26.999999981748132], [76.50000002448334, 27.000000029140246], [76.50000002448334, 27.9999999862579], [75.00000003143836, 27.999999963505974], [75.00000003143836, 26.999999981748132]]]}, "id": "0000000000000000899c", "properties": {"name": "NG-43-X-A"}}, {"type": "Feature", "geometry": {"type": "Polygon", "coordinates": [[[76.50000002448334, 27.000000029140246], [77.99999996816005, 27.000000014585886], [77.99999996816005, 28.000000014829546], [76.50000002448334, 27.9999999862579], [76.50000002448334, 27.000000029140246]]]}, "id": "0000000000000000899d", "properties": {"name": "NG-43-X-B"}}, {"type": "Feature", "geometry": {"type": "Polygon", "coordinates": [[[75.00000003143836, 25.999999998559872], [76.50000002448334, 25.99999997819551], [76.50000002448334, 27.000000029140246], [75.00000003143836, 26.999999981748132], [75.00000003143836, 25.999999998559872]]]}, "id": "0000000000000000899e", "properties": {"name": "NG-43-X-C"}}, {"type": "Feature", "geometry": {"type": "Polygon", "coordinates": [[[76.50000002448334, 25.99999997819551], [77.99999996816005, 25.99999999162253], [77.99999996816005, 27.000000014585886], [76.50000002448334, 27.000000029140246], [76.50000002448334, 25.99999997819551]]]}, "id": "0000000000000000899f", "properties": {"name": "NG-43-X-D"}}, {"type": "Feature", "geometry": {"type": "Polygon", "coordinates": [[[71.9999999820638, 25.000000026276513], [73.50000002302902, 24.999999992334175], [73.50000002302902, 25.999999999453433], [71.9999999820638, 25.999999980277284], [71.9999999820638, 25.000000026276513]]]}, "id": "000000000000000089a0", "properties": {"name": "NG-43-Y-A"}}, {"type": "Feature", "geometry": {"type": "Polygon", "coordinates": [[[73.50000002302902, 24.999999992334175], [75.00000003143836, 24.999999966138798], [75.00000003143836, 25.999999998559872], [73.50000002302902, 25.999999999453433], [73.50000002302902, 24.999999992334175]]]}, "id": "000000000000000089a1", "properties": {"name": "NG-43-Y-B"}}, {"type": "Feature", "geometry": {"type": "Polygon", "coordinates": [[[71.9999999820638, 23.999999972409487], [73.500000023029, 24.00000002291237], [73.50000002302902, 24.999999992334175], [71.9999999820638, 25.000000026276513], [71.9999999820638, 23.999999972409487]]]}, "id": "000000000000000089a2", "properties": {"name": "NG-43-Y-C"}}, {"type": "Feature", "geometry": {"type": "Polygon", "coordinates": [[[73.500000023029, 24.00000002291237], [75.00000003143836, 24.000000030970646], [75.00000003143836, 24.999999966138798], [73.50000002302902, 24.999999992334175], [73.500000023029, 24.00000002291237]]]}, "id": "000000000000000089a3", "properties": {"name": "NG-43-Y-D"}}, {"type": "Feature", "geometry": {"type": "Polygon", "coordinates": [[[75.00000003143836, 24.999999966138798], [76.50000002448334, 25.00000004369777], [76.50000002448334, 25.99999997819551], [75.00000003143836, 25.999999998559872], [75.00000003143836, 24.999999966138798]]]}, "id": "000000000000000089a4", "properties": {"name": "NG-43-Z-A"}}, {"type": "Feature", "geometry": {"type": "Polygon", "coordinates": [[[76.50000002448334, 25.00000004369777], [77.99999996816005, 25.000000027210863], [77.99999996816005, 25.99999999162253], [76.50000002448334, 25.99999997819551], [76.50000002448334, 25.00000004369777]]]}, "id": "000000000000000089a5", "properties": {"name": "NG-43-Z-B"}}, {"type": "Feature", "geometry": {"type": "Polygon", "coordinates": [[[75.00000003143836, 24.000000030970646], [76.50000002448334, 23.999999964255633], [76.50000002448334, 25.00000004369777], [75.00000003143836, 24.999999966138798], [75.00000003143836, 24.000000030970646]]]}, "id": "000000000000000089a6", "properties": {"name": "NG-43-Z-C"}}, {"type": "Feature", "geometry": {"type": "Polygon", "coordinates": [[[76.50000002448334, 23.999999964255633], [77.99999996816005, 23.999999964546518], [77.99999996816005, 25.000000027210863], [76.50000002448334, 25.00000004369777], [76.50000002448334, 23.999999964255633]]]}, "id": "000000000000000089a7", "properties": {"name": "NG-43-Z-D"}}, {"type": "Feature", "geometry": {"type": "Polygon", "coordinates": [[[73.50000002302902, 30.999999991685232], [75.00000003143836, 31.00000000433549], [75.00000003143836, 31.999999986109106], [73.50000002302902, 32.00000002817122], [73.50000002302902, 30.999999991685232]]]}, "id": "000000000000000089a9", "properties": {"name": "NH-43-V-B"}}, {"type": "Feature", "geometry": {"type": "Polygon", "coordinates": [[[73.50000002302902, 30.000000031539123], [75.00000003143836, 29.9999999796162], [75.00000003143836, 31.00000000433549], [73.50000002302902, 30.999999991685232], [73.50000002302902, 30.000000031539123]]]}, "id": "000000000000000089ab", "properties": {"name": "NH-43-V-D"}}, {"type": "Feature", "geometry": {"type": "Polygon", "coordinates": [[[75.00000003143836, 31.00000000433549], [76.50000002448334, 30.999999988644007], [76.50000002448334, 31.999999966680306], [75.00000003143836, 31.999999986109106], [75.00000003143836, 31.00000000433549]]]}, "id": "000000000000000089ac", "properties": {"name": "NH-43-X-A"}}, {"type": "Feature", "geometry": {"type": "Polygon", "coordinates": [[[76.50000002448334, 30.999999988644007], [77.99999996816005, 31.00000000517201], [77.99999996816005, 32.000000019910594], [76.50000002448334, 31.999999966680306], [76.50000002448334, 30.999999988644007]]]}, "id": "000000000000000089ad", "properties": {"name": "NH-43-X-B"}}, {"type": "Feature", "geometry": {"type": "Polygon", "coordinates": [[[75.00000003143836, 29.9999999796162], [76.50000002448334, 29.999999996861966], [76.50000002448334, 30.999999988644007], [75.00000003143836, 31.00000000433549], [75.00000003143836, 29.9999999796162]]]}, "id": "000000000000000089ae", "properties": {"name": "NH-43-X-C"}}, {"type": "Feature", "geometry": {"type": "Polygon", "coordinates": [[[76.50000002448334, 29.999999996861966], [77.99999996816005, 29.999999963905427], [77.99999996816005, 31.00000000517201], [76.50000002448334, 30.999999988644007], [76.50000002448334, 29.999999996861966]]]}, "id": "000000000000000089af", "properties": {"name": "NH-43-X-D"}}, {"type": "Feature", "geometry": {"type": "Polygon", "coordinates": [[[71.9999999820638, 29.00000003053716], [73.50000002302902, 29.00000000342121], [73.50000002302902, 30.000000031539123], [71.9999999820638, 29.999999966505424], [71.9999999820638, 29.00000003053716]]]}, "id": "000000000000000089b0", "properties": {"name": "NH-43-Y-A"}}, {"type": "Feature", "geometry": {"type": "Polygon", "coordinates": [[[73.50000002302902, 29.00000000342121], [75.00000003143836, 28.99999998009273], [75.00000003143836, 29.9999999796162], [73.50000002302902, 30.000000031539123], [73.50000002302902, 29.00000000342121]]]}, "id": "000000000000000089b1", "properties": {"name": "NH-43-Y-B"}}, {"type": "Feature", "geometry": {"type": "Polygon", "coordinates": [[[71.9999999820638, 27.999999972848602], [73.50000002302902, 28.00000002489673], [73.50000002302902, 29.00000000342121], [71.9999999820638, 29.00000003053716], [71.9999999820638, 27.999999972848602]]]}, "id": "000000000000000089b2", "properties": {"name": "NH-43-Y-C"}}, {"type": "Feature", "geometry": {"type": "Polygon", "coordinates": [[[73.50000002302902, 28.00000002489673], [75.00000003143836, 27.999999963505974], [75.00000003143836, 28.99999998009273], [73.50000002302902, 29.00000000342121], [73.50000002302902, 28.00000002489673]]]}, "id": "000000000000000089b3", "properties": {"name": "NH-43-Y-D"}}, {"type": "Feature", "geometry": {"type": "Polygon", "coordinates": [[[75.00000003143836, 28.99999998009273], [76.50000002448334, 28.999999964081624], [76.50000002448334, 29.999999996861966], [75.00000003143836, 29.9999999796162], [75.00000003143836, 28.99999998009273]]]}, "id": "000000000000000089b4", "properties": {"name": "NH-43-Z-A"}}, {"type": "Feature", "geometry": {"type": "Polygon", "coordinates": [[[76.50000002448334, 28.999999964081624], [77.99999996816005, 28.99999996752265], [77.99999996816005, 29.999999963905427], [76.50000002448334, 29.999999996861966], [76.50000002448334, 28.999999964081624]]]}, "id": "000000000000000089b5", "properties": {"name": "NH-43-Z-B"}}, {"type": "Feature", "geometry": {"type": "Polygon", "coordinates": [[[75.00000003143836, 27.999999963505974], [76.50000002448334, 27.9999999862579], [76.50000002448334, 28.999999964081624], [75.00000003143836, 28.99999998009273], [75.00000003143836, 27.999999963505974]]]}, "id": "000000000000000089b6", "properties": {"name": "NH-43-Z-C"}}, {"type": "Feature", "geometry": {"type": "Polygon", "coordinates": [[[76.50000002448334, 27.9999999862579], [77.99999996816005, 28.000000014829546], [77.99999996816005, 28.99999996752265], [76.50000002448334, 28.999999964081624], [76.50000002448334, 27.9999999862579]]]}, "id": "000000000000000089b7", "properties": {"name": "NH-43-Z-D"}}, {"type": "Feature", "geometry": {"type": "Polygon", "coordinates": [[[71.9999999820638, 34.99999999289465], [73.50000002302902, 35.00000001411545], [73.50000002302902, 35.99999997004469], [71.9999999820638, 35.99999995754816], [71.9999999820638, 34.99999999289465]]]}, "id": "000000000000000089b8", "properties": {"name": "NI-43-V-A"}}, {"type": "Feature", "geometry": {"type": "Polygon", "coordinates": [[[73.50000002302902, 35.00000001411545], [75.00000003143836, 34.99999998280321], [75.00000003143836, 36.00000000490591], [73.50000002302902, 35.99999997004469], [73.50000002302902, 35.00000001411545]]]}, "id": "000000000000000089b9", "properties": {"name": "NI-43-V-B"}}, {"type": "Feature", "geometry": {"type": "Polygon", "coordinates": [[[71.9999999820638, 34.00000003657453], [73.50000002302902, 33.99999998192659], [73.50000002302902, 35.00000001411545], [71.9999999820638, 34.99999999289465], [71.9999999820638, 34.00000003657453]]]}, "id": "000000000000000089ba", "properties": {"name": "NI-43-V-C"}}, {"type": "Feature", "geometry": {"type": "Polygon", "coordinates": [[[73.50000002302902, 33.99999998192659], [75.00000003143836, 33.99999999799457], [75.00000003143836, 34.99999998280321], [73.50000002302902, 35.00000001411545], [73.50000002302902, 33.99999998192659]]]}, "id": "000000000000000089bb", "properties": {"name": "NI-43-V-D"}}, {"type": "Feature", "geometry": {"type": "Polygon", "coordinates": [[[75.00000003143836, 34.99999998280321], [76.50000002448334, 34.9999999878106], [76.50000002448334, 36.00000001642089], [75.00000003143836, 36.00000000490591], [75.00000003143836, 34.99999998280321]]]}, "id": "000000000000000089bc", "properties": {"name": "NI-43-X-A"}}, {"type": "Feature", "geometry": {"type": "Polygon", "coordinates": [[[76.50000002448334, 34.9999999878106], [77.99999996816005, 34.99999999408719], [77.99999996816005, 36.00000002371493], [76.50000002448334, 36.00000001642089], [76.50000002448334, 34.9999999878106]]]}, "id": "000000000000000089bd", "properties": {"name": "NI-43-X-B"}}, {"type": "Feature", "geometry": {"type": "Polygon", "coordinates": [[[75.00000003143836, 33.99999999799457], [76.50000002448334, 34.00000002225833], [76.50000002448334, 34.9999999878106], [75.00000003143836, 34.99999998280321], [75.00000003143836, 33.99999999799457]]]}, "id": "000000000000000089be", "properties": {"name": "NI-43-X-C"}}, {"type": "Feature", "geometry": {"type": "Polygon", "coordinates": [[[76.50000002448334, 34.00000002225833], [77.99999996816005, 34.000000000242835], [77.99999996816005, 34.99999999408719], [76.50000002448334, 34.9999999878106], [76.50000002448334, 34.00000002225833]]]}, "id": "000000000000000089bf", "properties": {"name": "NI-43-X-D"}}, {"type": "Feature", "geometry": {"type": "Polygon", "coordinates": [[[73.50000002302902, 32.99999998254576], [75.00000003143836, 32.99999997688549], [75.00000003143836, 33.99999999799457], [73.50000002302902, 33.99999998192659], [73.50000002302902, 32.99999998254576]]]}, "id": "000000000000000089c1", "properties": {"name": "NI-43-Y-B"}}, {"type": "Feature", "geometry": {"type": "Polygon", "coordinates": [[[73.50000002302902, 32.00000002817122], [75.00000003143836, 31.999999986109106], [75.00000003143836, 32.99999997688549], [73.50000002302902, 32.99999998254576], [73.50000002302902, 32.00000002817122]]]}, "id": "000000000000000089c3", "properties": {"name": "NI-43-Y-D"}}, {"type": "Feature", "geometry": {"type": "Polygon", "coordinates": [[[75.00000003143836, 32.99999997688549], [76.50000002448334, 32.999999989504], [76.50000002448334, 34.00000002225833], [75.00000003143836, 33.99999999799457], [75.00000003143836, 32.99999997688549]]]}, "id": "000000000000000089c4", "properties": {"name": "NI-43-Z-A"}}, {"type": "Feature", "geometry": {"type": "Polygon", "coordinates": [[[76.50000002448334, 32.999999989504], [77.99999996816005, 32.99999997042521], [77.99999996816005, 34.000000000242835], [76.50000002448334, 34.00000002225833], [76.50000002448334, 32.999999989504]]]}, "id": "000000000000000089c5", "properties": {"name": "NI-43-Z-B"}}, {"type": "Feature", "geometry": {"type": "Polygon", "coordinates": [[[75.00000003143836, 31.999999986109106], [76.50000002448334, 31.999999966680306], [76.50000002448334, 32.999999989504], [75.00000003143836, 32.99999997688549], [75.00000003143836, 31.999999986109106]]]}, "id": "000000000000000089c6", "properties": {"name": "NI-43-Z-C"}}, {"type": "Feature", "geometry": {"type": "Polygon", "coordinates": [[[76.50000002448334, 31.999999966680306], [77.99999996816005, 32.000000019910594], [77.99999996816005, 32.99999997042521], [76.50000002448334, 32.999999989504], [76.50000002448334, 31.999999966680306]]]}, "id": "000000000000000089c7", "properties": {"name": "NI-43-Z-D"}}, {"type": "Feature", "geometry": {"type": "Polygon", "coordinates": [[[73.50000002302902, 36.99999999004717], [75.00000003143836, 36.99999999574258], [75.00000003143836, 37.99999996823727], [73.50000002302902, 38.00000000643162], [73.50000002302902, 36.99999999004717]]]}, "id": "000000000000000089d1", "properties": {"name": "NJ-43-Y-B"}}, {"type": "Feature", "geometry": {"type": "Polygon", "coordinates": [[[71.9999999820638, 35.99999995754816], [73.50000002302902, 35.99999997004469], [73.50000002302902, 36.99999999004717], [71.9999999820638, 36.99999996472488], [71.9999999820638, 35.99999995754816]]]}, "id": "000000000000000089d2", "properties": {"name": "NJ-43-Y-C"}}, {"type": "Feature", "geometry": {"type": "Polygon", "coordinates": [[[73.50000002302902, 35.99999997004469], [75.00000003143836, 36.00000000490591], [75.00000003143836, 36.99999999574258], [73.50000002302902, 36.99999999004717], [73.50000002302902, 35.99999997004469]]]}, "id": "000000000000000089d3", "properties": {"name": "NJ-43-Y-D"}}, {"type": "Feature", "geometry": {"type": "Polygon", "coordinates": [[[75.00000003143836, 36.99999999574258], [76.50000002448334, 37.000000019859336], [76.50000002448334, 38.00000002335435], [75.00000003143836, 37.99999996823727], [75.00000003143836, 36.99999999574258]]]}, "id": "000000000000000089d4", "properties": {"name": "NJ-43-Z-A"}}, {"type": "Feature", "geometry": {"type": "Polygon", "coordinates": [[[75.00000003143836, 36.00000000490591], [76.50000002448334, 36.00000001642089], [76.50000002448334, 37.000000019859336], [75.00000003143836, 36.99999999574258], [75.00000003143836, 36.00000000490591]]]}, "id": "000000000000000089d6", "properties": {"name": "NJ-43-Z-C"}}, {"type": "Feature", "geometry": {"type": "Polygon", "coordinates": [[[76.50000002448334, 36.00000001642089], [77.99999996816005, 36.00000002371493], [77.99999996816005, 37.00000002325682], [76.50000002448334, 37.000000019859336], [76.50000002448334, 36.00000001642089]]]}, "id": "000000000000000089d7", "properties": {"name": "NJ-43-Z-D"}}, {"type": "Feature", "geometry": {"type": "Polygon", "coordinates": [[[77.99999996816005, 10.999999990763872], [79.49999997761337, 11.000000016801236], [79.49999997761337, 11.999999970294922], [77.99999996816005, 11.999999982952987], [77.99999996816005, 10.999999990763872]]]}, "id": "00000000000000008ab8", "properties": {"name": "NC-44-V-A"}}, {"type": "Feature", "geometry": {"type": "Polygon", "coordinates": [[[79.49999997761337, 11.000000016801236], [80.99999997378991, 10.999999980570049], [80.99999997378991, 11.999999985207744], [79.49999997761337, 11.999999970294922], [79.49999997761337, 11.000000016801236]]]}, "id": "00000000000000008ab9", "properties": {"name": "NC-44-V-B"}}, {"type": "Feature", "geometry": {"type": "Polygon", "coordinates": [[[77.99999996816005, 10.000000005398741], [79.49999997761337, 10.000000013938772], [79.49999997761337, 11.000000016801236], [77.99999996816005, 10.999999990763872], [77.99999996816005, 10.000000005398741]]]}, "id": "00000000000000008aba", "properties": {"name": "NC-44-V-C"}}, {"type": "Feature", "geometry": {"type": "Polygon", "coordinates": [[[79.49999997761337, 10.000000013938772], [80.99999997378991, 10.000000024493925], [80.99999997378991, 10.999999980570049], [79.49999997761337, 11.000000016801236], [79.49999997761337, 10.000000013938772]]]}, "id": "00000000000000008abb", "properties": {"name": "NC-44-V-D"}}, {"type": "Feature", "geometry": {"type": "Polygon", "coordinates": [[[77.99999996816005, 9.000000010507287], [79.49999997761337, 8.999999959928768], [79.49999997761337, 10.000000013938772], [77.99999996816005, 10.000000005398741], [77.99999996816005, 9.000000010507287]]]}, "id": "00000000000000008ac0", "properties": {"name": "NC-44-Y-A"}}, {"type": "Feature", "geometry": {"type": "Polygon", "coordinates": [[[77.99999996816005, 8.000000036117237], [79.49999997761337, 7.999999989933435], [79.49999997761337, 8.999999959928768], [77.99999996816005, 9.000000010507287], [77.99999996816005, 8.000000036117237]]]}, "id": "00000000000000008ac2", "properties": {"name": "NC-44-Y-C"}}, {"type": "Feature", "geometry": {"type": "Polygon", "coordinates": [[[77.99999996816005, 15.000000006147905], [79.49999997761337, 14.999999961080878], [79.49999997761337, 15.999999996683064], [77.99999996816005, 16.00000002366034], [77.99999996816005, 15.000000006147905]]]}, "id": "00000000000000008ac8", "properties": {"name": "ND-44-V-A"}}, {"type": "Feature", "geometry": {"type": "Polygon", "coordinates": [[[79.49999997761337, 14.999999961080878], [80.99999997378991, 14.999999976087626], [80.99999997378991, 15.999999966342152], [79.49999997761337, 15.999999996683064], [79.49999997761337, 14.999999961080878]]]}, "id": "00000000000000008ac9", "properties": {"name": "ND-44-V-B"}}, {"type": "Feature", "geometry": {"type": "Polygon", "coordinates": [[[77.99999996816005, 13.999999959440263], [79.49999997761337, 14.000000011660278], [79.49999997761337, 14.999999961080878], [77.99999996816005, 15.000000006147905], [77.99999996816005, 13.999999959440263]]]}, "id": "00000000000000008aca", "properties": {"name": "ND-44-V-C"}}, {"type": "Feature", "geometry": {"type": "Polygon", "coordinates": [[[79.49999997761337, 14.000000011660278], [80.99999997378991, 14.000000010624918], [80.99999997378991, 14.999999976087626], [79.49999997761337, 14.999999961080878], [79.49999997761337, 14.000000011660278]]]}, "id": "00000000000000008acb", "properties": {"name": "ND-44-V-D"}}, {"type": "Feature", "geometry": {"type": "Polygon", "coordinates": [[[80.99999997378991, 14.999999976087626], [82.49999998609522, 15.000000014918795], [82.49999998609522, 16.00000001237119], [80.99999997378991, 15.999999966342152], [80.99999997378991, 14.999999976087626]]]}, "id": "00000000000000008acc", "properties": {"name": "ND-44-X-A"}}, {"type": "Feature", "geometry": {"type": "Polygon", "coordinates": [[[77.99999996816005, 12.99999998066194], [79.49999997761337, 13.000000041460167], [79.49999997761337, 14.000000011660278], [77.99999996816005, 13.999999959440263], [77.99999996816005, 12.99999998066194]]]}, "id": "00000000000000008ad0", "properties": {"name": "ND-44-Y-A"}}, {"type": "Feature", "geometry": {"type": "Polygon", "coordinates": [[[79.49999997761337, 13.000000041460167], [80.99999997378991, 13.000000032542529], [80.99999997378991, 14.000000010624918], [79.49999997761337, 14.000000011660278], [79.49999997761337, 13.000000041460167]]]}, "id": "00000000000000008ad1", "properties": {"name": "ND-44-Y-B"}}, {"type": "Feature", "geometry": {"type": "Polygon", "coordinates": [[[77.99999996816005, 11.999999982952987], [79.49999997761337, 11.999999970294922], [79.49999997761337, 13.000000041460167], [77.99999996816005, 12.99999998066194], [77.99999996816005, 11.999999982952987]]]}, "id": "00000000000000008ad2", "properties": {"name": "ND-44-Y-C"}}, {"type": "Feature", "geometry": {"type": "Polygon", "coordinates": [[[79.49999997761337, 11.999999970294922], [80.99999997378991, 11.999999985207744], [80.99999997378991, 13.000000032542529], [79.49999997761337, 13.000000041460167], [79.49999997761337, 11.999999970294922]]]}, "id": "00000000000000008ad3", "properties": {"name": "ND-44-Y-D"}}, {"type": "Feature", "geometry": {"type": "Polygon", "coordinates": [[[77.99999996816005, 19.000000040799623], [79.49999997761337, 19.000000004527283], [79.49999997761337, 20.000000039676603], [77.99999996816005, 19.999999977904217], [77.99999996816005, 19.000000040799623]]]}, "id": "00000000000000008ad8", "properties": {"name": "NE-44-V-A"}}, {"type": "Feature", "geometry": {"type": "Polygon", "coordinates": [[[79.49999997761337, 19.000000004527283], [80.99999997378991, 18.99999998103529], [80.99999997378991, 19.99999996835407], [79.49999997761337, 20.000000039676603], [79.49999997761337, 19.000000004527283]]]}, "id": "00000000000000008ad9", "properties": {"name": "NE-44-V-B"}}, {"type": "Feature", "geometry": {"type": "Polygon", "coordinates": [[[77.99999996816005, 17.999999962975814], [79.49999997761337, 17.999999984349238], [79.49999997761337, 19.000000004527283], [77.99999996816005, 19.000000040799623], [77.99999996816005, 17.999999962975814]]]}, "id": "00000000000000008ada", "properties": {"name": "NE-44-V-C"}}, {"type": "Feature", "geometry": {"type": "Polygon", "coordinates": [[[79.49999997761337, 17.999999984349238], [80.99999997378991, 17.999999976037703], [80.99999997378991, 18.99999998103529], [79.49999997761337, 19.000000004527283], [79.49999997761337, 17.999999984349238]]]}, "id": "00000000000000008adb", "properties": {"name": "NE-44-V-D"}}, {"type": "Feature", "geometry": {"type": "Polygon", "coordinates": [[[80.99999997378991, 18.99999998103529], [82.49999998609522, 19.000000008816205], [82.49999998609522, 20.000000027142423], [80.99999997378991, 19.99999996835407], [80.99999997378991, 18.99999998103529]]]}, "id": "00000000000000008adc", "properties": {"name": "NE-44-X-A"}}, {"type": "Feature", "geometry": {"type": "Polygon", "coordinates": [[[82.49999998609522, 19.000000008816205], [84.0000000113116, 18.999999993099937], [84.0000000113116, 19.99999997760272], [82.49999998609522, 20.000000027142423], [82.49999998609522, 19.000000008816205]]]}, "id": "00000000000000008add", "properties": {"name": "NE-44-X-B"}}, {"type": "Feature", "geometry": {"type": "Polygon", "coordinates": [[[80.99999997378991, 17.999999976037703], [82.49999998609522, 18.000000033562188], [82.49999998609522, 19.000000008816205], [80.99999997378991, 18.99999998103529], [80.99999997378991, 17.999999976037703]]]}, "id": "00000000000000008ade", "properties": {"name": "NE-44-X-C"}}, {"type": "Feature", "geometry": {"type": "Polygon", "coordinates": [[[82.49999998609522, 18.000000033562188], [84.0000000113116, 17.999999976542597], [84.0000000113116, 18.999999993099937], [82.49999998609522, 19.000000008816205], [82.49999998609522, 18.000000033562188]]]}, "id": "00000000000000008adf", "properties": {"name": "NE-44-X-D"}}, {"type": "Feature", "geometry": {"type": "Polygon", "coordinates": [[[77.99999996816005, 16.999999956676398], [79.49999997761337, 17.000000040688754], [79.49999997761337, 17.999999984349238], [77.99999996816005, 17.999999962975814], [77.99999996816005, 16.999999956676398]]]}, "id": "00000000000000008ae0", "properties": {"name": "NE-44-Y-A"}}, {"type": "Feature", "geometry": {"type": "Polygon", "coordinates": [[[79.49999997761337, 17.000000040688754], [80.99999997378991, 17.000000042229313], [80.99999997378991, 17.999999976037703], [79.49999997761337, 17.999999984349238], [79.49999997761337, 17.000000040688754]]]}, "id": "00000000000000008ae1", "properties": {"name": "NE-44-Y-B"}}, {"type": "Feature", "geometry": {"type": "Polygon", "coordinates": [[[77.99999996816005, 16.00000002366034], [79.49999997761337, 15.999999996683064], [79.49999997761337, 17.000000040688754], [77.99999996816005, 16.999999956676398], [77.99999996816005, 16.00000002366034]]]}, "id": "00000000000000008ae2", "properties": {"name": "NE-44-Y-C"}}, {"type": "Feature", "geometry": {"type": "Polygon", "coordinates": [[[79.49999997761337, 15.999999996683064], [80.99999997378991, 15.999999966342152], [80.99999997378991, 17.000000042229313], [79.49999997761337, 17.000000040688754], [79.49999997761337, 15.999999996683064]]]}, "id": "00000000000000008ae3", "properties": {"name": "NE-44-Y-D"}}, {"type": "Feature", "geometry": {"type": "Polygon", "coordinates": [[[80.99999997378991, 17.000000042229313], [82.49999998609522, 17.00000001730673], [82.49999998609522, 18.000000033562188], [80.99999997378991, 17.999999976037703], [80.99999997378991, 17.000000042229313]]]}, "id": "00000000000000008ae4", "properties": {"name": "NE-44-Z-A"}}, {"type": "Feature", "geometry": {"type": "Polygon", "coordinates": [[[82.49999998609522, 17.00000001730673], [84.0000000113116, 16.99999999359356], [84.0000000113116, 17.999999976542597], [82.49999998609522, 18.000000033562188], [82.49999998609522, 17.00000001730673]]]}, "id": "00000000000000008ae5", "properties": {"name": "NE-44-Z-B"}}, {"type": "Feature", "geometry": {"type": "Polygon", "coordinates": [[[80.99999997378991, 15.999999966342152], [82.49999998609522, 16.00000001237119], [82.49999998609522, 17.00000001730673], [80.99999997378991, 17.000000042229313], [80.99999997378991, 15.999999966342152]]]}, "id": "00000000000000008ae6", "properties": {"name": "NE-44-Z-C"}}, {"type": "Feature", "geometry": {"type": "Polygon", "coordinates": [[[77.99999996816005, 22.999999990925875], [79.49999997761337, 22.999999977460284], [79.49999997761337, 24.00000003309636], [77.99999996816005, 23.999999964546518], [77.99999996816005, 22.999999990925875]]]}, "id": "00000000000000008ae8", "properties": {"name": "NF-44-V-A"}}, {"type": "Feature", "geometry": {"type": "Polygon", "coordinates": [[[79.49999997761337, 22.999999977460284], [80.99999997378991, 23.000000038946506], [80.99999997378991, 23.999999986781962], [79.49999997761337, 24.00000003309636], [79.49999997761337, 22.999999977460284]]]}, "id": "00000000000000008ae9", "properties": {"name": "NF-44-V-B"}}, {"type": "Feature", "geometry": {"type": "Polygon", "coordinates": [[[77.99999996816005, 21.99999999777841], [79.49999997761337, 21.99999995806753], [79.49999997761337, 22.999999977460284], [77.99999996816005, 22.999999990925875], [77.99999996816005, 21.99999999777841]]]}, "id": "00000000000000008aea", "properties": {"name": "NF-44-V-C"}}, {"type": "Feature", "geometry": {"type": "Polygon", "coordinates": [[[79.49999997761337, 21.99999995806753], [80.99999997378991, 21.999999975152143], [80.99999997378991, 23.000000038946506], [79.49999997761337, 22.999999977460284], [79.49999997761337, 21.99999995806753]]]}, "id": "00000000000000008aeb", "properties": {"name": "NF-44-V-D"}}, {"type": "Feature", "geometry": {"type": "Polygon", "coordinates": [[[80.99999997378991, 23.000000038946506], [82.49999998609522, 23.000000014467034], [82.49999998609522, 24.000000016726766], [80.99999997378991, 23.999999986781962], [80.99999997378991, 23.000000038946506]]]}, "id": "00000000000000008aec", "properties": {"name": "NF-44-X-A"}}, {"type": "Feature", "geometry": {"type": "Polygon", "coordinates": [[[82.49999998609522, 23.000000014467034], [84.0000000113116, 22.999999983508946], [84.0000000113116, 24.000000000299337], [82.49999998609522, 24.000000016726766], [82.49999998609522, 23.000000014467034]]]}, "id": "00000000000000008aed", "properties": {"name": "NF-44-X-B"}}, {"type": "Feature", "geometry": {"type": "Polygon", "coordinates": [[[80.99999997378991, 21.999999975152143], [82.49999998609522, 21.999999972320335], [82.49999998609522, 23.000000014467034], [80.99999997378991, 23.000000038946506], [80.99999997378991, 21.999999975152143]]]}, "id": "00000000000000008aee", "properties": {"name": "NF-44-X-C"}}, {"type": "Feature", "geometry": {"type": "Polygon", "coordinates": [[[82.49999998609522, 21.999999972320335], [84.0000000113116, 21.99999996544356], [84.0000000113116, 22.999999983508946], [82.49999998609522, 23.000000014467034], [82.49999998609522, 21.999999972320335]]]}, "id": "00000000000000008aef", "properties": {"name": "NF-44-X-D"}}, {"type": "Feature", "geometry": {"type": "Polygon", "coordinates": [[[77.99999996816005, 20.99999998919987], [79.49999997761337, 21.000000030058317], [79.49999997761337, 21.99999995806753], [77.99999996816005, 21.99999999777841], [77.99999996816005, 20.99999998919987]]]}, "id": "00000000000000008af0", "properties": {"name": "NF-44-Y-A"}}, {"type": "Feature", "geometry": {"type": "Polygon", "coordinates": [[[79.49999997761337, 21.000000030058317], [80.99999997378991, 21.000000011515024], [80.99999997378991, 21.999999975152143], [79.49999997761337, 21.99999995806753], [79.49999997761337, 21.000000030058317]]]}, "id": "00000000000000008af1", "properties": {"name": "NF-44-Y-B"}}, {"type": "Feature", "geometry": {"type": "Polygon", "coordinates": [[[77.99999996816005, 19.999999977904217], [79.49999997761337, 20.000000039676603], [79.49999997761337, 21.000000030058317], [77.99999996816005, 20.99999998919987], [77.99999996816005, 19.999999977904217]]]}, "id": "00000000000000008af2", "properties": {"name": "NF-44-Y-C"}}, {"type": "Feature", "geometry": {"type": "Polygon", "coordinates": [[[79.49999997761337, 20.000000039676603], [80.99999997378991, 19.99999996835407], [80.99999997378991, 21.000000011515024], [79.49999997761337, 21.000000030058317], [79.49999997761337, 20.000000039676603]]]}, "id": "00000000000000008af3", "properties": {"name": "NF-44-Y-D"}}, {"type": "Feature", "geometry": {"type": "Polygon", "coordinates": [[[80.99999997378991, 21.000000011515024], [82.49999998609522, 21.00000000300302], [82.49999998609522, 21.999999972320335], [80.99999997378991, 21.999999975152143], [80.99999997378991, 21.000000011515024]]]}, "id": "00000000000000008af4", "properties": {"name": "NF-44-Z-A"}}, {"type": "Feature", "geometry": {"type": "Polygon", "coordinates": [[[82.49999998609522, 21.00000000300302], [84.0000000113116, 21.000000039069786], [84.0000000113116, 21.99999996544356], [82.49999998609522, 21.999999972320335], [82.49999998609522, 21.00000000300302]]]}, "id": "00000000000000008af5", "properties": {"name": "NF-44-Z-B"}}, {"type": "Feature", "geometry": {"type": "Polygon", "coordinates": [[[80.99999997378991, 19.99999996835407], [82.49999998609522, 20.000000027142423], [82.49999998609522, 21.00000000300302], [80.99999997378991, 21.000000011515024], [80.99999997378991, 19.99999996835407]]]}, "id": "00000000000000008af6", "properties": {"name": "NF-44-Z-C"}}, {"type": "Feature", "geometry": {"type": "Polygon", "coordinates": [[[82.49999998609522, 20.000000027142423], [84.0000000113116, 19.99999997760272], [84.0000000113116, 21.000000039069786], [82.49999998609522, 21.00000000300302], [82.49999998609522, 20.000000027142423]]]}, "id": "00000000000000008af7", "properties": {"name": "NF-44-Z-D"}}, {"type": "Feature", "geometry": {"type": "Polygon", "coordinates": [[[77.99999996816005, 27.000000014585886], [79.49999997761337, 26.99999997799345], [79.49999997761337, 27.999999997662343], [77.99999996816005, 28.000000014829546], [77.99999996816005, 27.000000014585886]]]}, "id": "00000000000000008af8", "properties": {"name": "NG-44-V-A"}}, {"type": "Feature", "geometry": {"type": "Polygon", "coordinates": [[[79.49999997761337, 26.99999997799345], [80.99999997378991, 26.999999983101684], [80.99999997378991, 27.99999999578789], [79.49999997761337, 27.999999997662343], [79.49999997761337, 26.99999997799345]]]}, "id": "00000000000000008af9", "properties": {"name": "NG-44-V-B"}}, {"type": "Feature", "geometry": {"type": "Polygon", "coordinates": [[[77.99999996816005, 25.99999999162253], [79.49999997761337, 26.000000011210528], [79.49999997761337, 26.99999997799345], [77.99999996816005, 27.000000014585886], [77.99999996816005, 25.99999999162253]]]}, "id": "00000000000000008afa", "properties": {"name": "NG-44-V-C"}}, {"type": "Feature", "geometry": {"type": "Polygon", "coordinates": [[[79.49999997761337, 26.000000011210528], [80.99999997378991, 26.0000000402169], [80.99999997378991, 26.999999983101684], [79.49999997761337, 26.99999997799345], [79.49999997761337, 26.000000011210528]]]}, "id": "00000000000000008afb", "properties": {"name": "NG-44-V-D"}}, {"type": "Feature", "geometry": {"type": "Polygon", "coordinates": [[[80.99999997378991, 26.999999983101684], [82.49999998609522, 26.999999980531136], [82.49999998609522, 28.000000024747617], [80.99999997378991, 27.99999999578789], [80.99999997378991, 26.999999983101684]]]}, "id": "00000000000000008afc", "properties": {"name": "NG-44-X-A"}}, {"type": "Feature", "geometry": {"type": "Polygon", "coordinates": [[[82.49999998609522, 26.999999980531136], [84.0000000113116, 27.00000000154603], [84.0000000113116, 28.00000003506895], [82.49999998609522, 28.000000024747617], [82.49999998609522, 26.999999980531136]]]}, "id": "00000000000000008afd", "properties": {"name": "NG-44-X-B"}}, {"type": "Feature", "geometry": {"type": "Polygon", "coordinates": [[[80.99999997378991, 26.0000000402169], [82.49999998609522, 25.99999999890997], [82.49999998609522, 26.999999980531136], [80.99999997378991, 26.999999983101684], [80.99999997378991, 26.0000000402169]]]}, "id": "00000000000000008afe", "properties": {"name": "NG-44-X-C"}}, {"type": "Feature", "geometry": {"type": "Polygon", "coordinates": [[[82.49999998609522, 25.99999999890997], [84.0000000113116, 26.000000044589424], [84.0000000113116, 27.00000000154603], [82.49999998609522, 26.999999980531136], [82.49999998609522, 25.99999999890997]]]}, "id": "00000000000000008aff", "properties": {"name": "NG-44-X-D"}}, {"type": "Feature", "geometry": {"type": "Polygon", "coordinates": [[[77.99999996816005, 25.000000027210863], [79.49999997761337, 24.999999998473974], [79.49999997761337, 26.000000011210528], [77.99999996816005, 25.99999999162253], [77.99999996816005, 25.000000027210863]]]}, "id": "00000000000000008b00", "properties": {"name": "NG-44-Y-A"}}, {"type": "Feature", "geometry": {"type": "Polygon", "coordinates": [[[79.49999997761337, 24.999999998473974], [80.99999997378991, 25.000000002322373], [80.99999997378991, 26.0000000402169], [79.49999997761337, 26.000000011210528], [79.49999997761337, 24.999999998473974]]]}, "id": "00000000000000008b01", "properties": {"name": "NG-44-Y-B"}}, {"type": "Feature", "geometry": {"type": "Polygon", "coordinates": [[[77.99999996816005, 23.999999964546518], [79.49999997761337, 24.00000003309636], [79.49999997761337, 24.999999998473974], [77.99999996816005, 25.000000027210863], [77.99999996816005, 23.999999964546518]]]}, "id": "00000000000000008b02", "properties": {"name": "NG-44-Y-C"}}, {"type": "Feature", "geometry": {"type": "Polygon", "coordinates": [[[79.49999997761337, 24.00000003309636], [80.99999997378991, 23.999999986781962], [80.99999997378991, 25.000000002322373], [79.49999997761337, 24.999999998473974], [79.49999997761337, 24.00000003309636]]]}, "id": "00000000000000008b03", "properties": {"name": "NG-44-Y-D"}}, {"type": "Feature", "geometry": {"type": "Polygon", "coordinates": [[[80.99999997378991, 25.000000002322373], [82.49999998609522, 25.000000043587594], [82.49999998609522, 25.99999999890997], [80.99999997378991, 26.0000000402169], [80.99999997378991, 25.000000002322373]]]}, "id": "00000000000000008b04", "properties": {"name": "NG-44-Z-A"}}, {"type": "Feature", "geometry": {"type": "Polygon", "coordinates": [[[82.49999998609522, 25.000000043587594], [84.0000000113116, 24.99999999223716], [84.0000000113116, 26.000000044589424], [82.49999998609522, 25.99999999890997], [82.49999998609522, 25.000000043587594]]]}, "id": "00000000000000008b05", "properties": {"name": "NG-44-Z-B"}}, {"type": "Feature", "geometry": {"type": "Polygon", "coordinates": [[[80.99999997378991, 23.999999986781962], [82.49999998609522, 24.000000016726766], [82.49999998609522, 25.000000043587594], [80.99999997378991, 25.000000002322373], [80.99999997378991, 23.999999986781962]]]}, "id": "00000000000000008b06", "properties": {"name": "NG-44-Z-C"}}, {"type": "Feature", "geometry": {"type": "Polygon", "coordinates": [[[82.49999998609522, 24.000000016726766], [84.0000000113116, 24.000000000299337], [84.0000000113116, 24.99999999223716], [82.49999998609522, 25.000000043587594], [82.49999998609522, 24.000000016726766]]]}, "id": "00000000000000008b07", "properties": {"name": "NG-44-Z-D"}}, {"type": "Feature", "geometry": {"type": "Polygon", "coordinates": [[[77.99999996816005, 31.00000000517201], [79.49999997761337, 30.999999968805728], [79.49999997761337, 32.00000000046889], [77.99999996816005, 32.000000019910594], [77.99999996816005, 31.00000000517201]]]}, "id": "00000000000000008b08", "properties": {"name": "NH-44-V-A"}}, {"type": "Feature", "geometry": {"type": "Polygon", "coordinates": [[[79.49999997761337, 30.999999968805728], [80.99999997378991, 31.000000033774207], [80.99999997378991, 32.00000002020674], [79.49999997761337, 32.00000000046889], [79.49999997761337, 30.999999968805728]]]}, "id": "00000000000000008b09", "properties": {"name": "NH-44-V-B"}}, {"type": "Feature", "geometry": {"type": "Polygon", "coordinates": [[[77.99999996816005, 29.999999963905427], [79.49999997761337, 30.000000014226543], [79.49999997761337, 30.999999968805728], [77.99999996816005, 31.00000000517201], [77.99999996816005, 29.999999963905427]]]}, "id": "00000000000000008b0a", "properties": {"name": "NH-44-V-C"}}, {"type": "Feature", "geometry": {"type": "Polygon", "coordinates": [[[79.49999997761337, 30.000000014226543], [80.99999997378991, 29.999999981791213], [80.99999997378991, 31.000000033774207], [79.49999997761337, 30.999999968805728], [79.49999997761337, 30.000000014226543]]]}, "id": "00000000000000008b0b", "properties": {"name": "NH-44-V-D"}}, {"type": "Feature", "geometry": {"type": "Polygon", "coordinates": [[[80.99999997378991, 29.999999981791213], [82.49999998609522, 29.999999980627017], [82.49999998609522, 31.000000021907997], [80.99999997378991, 31.000000033774207], [80.99999997378991, 29.999999981791213]]]}, "id": "00000000000000008b0e", "properties": {"name": "NH-44-X-C"}}, {"type": "Feature", "geometry": {"type": "Polygon", "coordinates": [[[77.99999996816005, 28.99999996752265], [79.49999997761337, 28.999999966332865], [79.49999997761337, 30.000000014226543], [77.99999996816005, 29.999999963905427], [77.99999996816005, 28.99999996752265]]]}, "id": "00000000000000008b10", "properties": {"name": "NH-44-Y-A"}}, {"type": "Feature", "geometry": {"type": "Polygon", "coordinates": [[[79.49999997761337, 28.999999966332865], [80.99999997378991, 28.999999969867115], [80.99999997378991, 29.999999981791213], [79.49999997761337, 30.000000014226543], [79.49999997761337, 28.999999966332865]]]}, "id": "00000000000000008b11", "properties": {"name": "NH-44-Y-B"}}, {"type": "Feature", "geometry": {"type": "Polygon", "coordinates": [[[77.99999996816005, 28.000000014829546], [79.49999997761337, 27.999999997662343], [79.49999997761337, 28.999999966332865], [77.99999996816005, 28.99999996752265], [77.99999996816005, 28.000000014829546]]]}, "id": "00000000000000008b12", "properties": {"name": "NH-44-Y-C"}}, {"type": "Feature", "geometry": {"type": "Polygon", "coordinates": [[[79.49999997761337, 27.999999997662343], [80.99999997378991, 27.99999999578789], [80.99999997378991, 28.999999969867115], [79.49999997761337, 28.999999966332865], [79.49999997761337, 27.999999997662343]]]}, "id": "00000000000000008b13", "properties": {"name": "NH-44-Y-D"}}, {"type": "Feature", "geometry": {"type": "Polygon", "coordinates": [[[80.99999997378991, 27.99999999578789], [82.49999998609522, 28.000000024747617], [82.49999998609522, 29.000000015526854], [80.99999997378991, 28.999999969867115], [80.99999997378991, 27.99999999578789]]]}, "id": "00000000000000008b16", "properties": {"name": "NH-44-Z-C"}}, {"type": "Feature", "geometry": {"type": "Polygon", "coordinates": [[[77.99999996816005, 34.99999999408719], [79.49999997761337, 34.99999995721617], [79.49999997761337, 35.99999998079622], [77.99999996816005, 36.00000002371493], [77.99999996816005, 34.99999999408719]]]}, "id": "00000000000000008b18", "properties": {"name": "NI-44-V-A"}}, {"type": "Feature", "geometry": {"type": "Polygon", "coordinates": [[[79.49999997761337, 34.99999995721617], [80.99999997378991, 34.999999973172635], [80.99999997378991, 35.99999999240099], [79.49999997761337, 35.99999998079622], [79.49999997761337, 34.99999995721617]]]}, "id": "00000000000000008b19", "properties": {"name": "NI-44-V-B"}}, {"type": "Feature", "geometry": {"type": "Polygon", "coordinates": [[[77.99999996816005, 34.000000000242835], [79.49999997761337, 34.00000000533857], [79.49999997761337, 34.99999995721617], [77.99999996816005, 34.99999999408719], [77.99999996816005, 34.000000000242835]]]}, "id": "00000000000000008b1a", "properties": {"name": "NI-44-V-C"}}, {"type": "Feature", "geometry": {"type": "Polygon", "coordinates": [[[79.49999997761337, 34.00000000533857], [80.99999997378991, 33.999999984703585], [80.99999997378991, 34.999999973172635], [79.49999997761337, 34.99999995721617], [79.49999997761337, 34.00000000533857]]]}, "id": "00000000000000008b1b", "properties": {"name": "NI-44-V-D"}}, {"type": "Feature", "geometry": {"type": "Polygon", "coordinates": [[[77.99999996816005, 32.99999997042521], [79.49999997761337, 32.99999996493734], [79.49999997761337, 34.00000000533857], [77.99999996816005, 34.000000000242835], [77.99999996816005, 32.99999997042521]]]}, "id": "00000000000000008b20", "properties": {"name": "NI-44-Y-A"}}, {"type": "Feature", "geometry": {"type": "Polygon", "coordinates": [[[77.99999996816005, 32.000000019910594], [79.49999997761337, 32.00000000046889], [79.49999997761337, 32.99999996493734], [77.99999996816005, 32.99999997042521], [77.99999996816005, 32.000000019910594]]]}, "id": "00000000000000008b22", "properties": {"name": "NI-44-Y-C"}}, {"type": "Feature", "geometry": {"type": "Polygon", "coordinates": [[[79.49999997761337, 32.00000000046889], [80.99999997378991, 32.00000002020674], [80.99999997378991, 32.999999955799616], [79.49999997761337, 32.99999996493734], [79.49999997761337, 32.00000000046889]]]}, "id": "00000000000000008b23", "properties": {"name": "NI-44-Y-D"}}, {"type": "Feature", "geometry": {"type": "Polygon", "coordinates": [[[84.0000000113116, 18.999999993099937], [85.50000002001167, 19.000000032815954], [85.50000002001167, 19.999999997418104], [84.0000000113116, 19.99999997760272], [84.0000000113116, 18.999999993099937]]]}, "id": "00000000000000008c38", "properties": {"name": "NE-45-V-A"}}, {"type": "Feature", "geometry": {"type": "Polygon", "coordinates": [[[85.50000002001167, 19.000000032815954], [86.99999998332031, 18.99999999630303], [86.99999998332031, 20.000000025684837], [85.50000002001167, 19.999999997418104], [85.50000002001167, 19.000000032815954]]]}, "id": "00000000000000008c39", "properties": {"name": "NE-45-V-B"}}, {"type": "Feature", "geometry": {"type": "Polygon", "coordinates": [[[84.0000000113116, 17.999999976542597], [85.50000002001167, 17.99999998253018], [85.50000002001167, 19.000000032815954], [84.0000000113116, 18.999999993099937], [84.0000000113116, 17.999999976542597]]]}, "id": "00000000000000008c3a", "properties": {"name": "NE-45-V-C"}}, {"type": "Feature", "geometry": {"type": "Polygon", "coordinates": [[[84.0000000113116, 22.999999983508946], [85.50000002001167, 22.99999997904239], [85.50000002001167, 23.999999979880506], [84.0000000113116, 24.000000000299337], [84.0000000113116, 22.999999983508946]]]}, "id": "00000000000000008c48", "properties": {"name": "NF-45-V-A"}}, {"type": "Feature", "geometry": {"type": "Polygon", "coordinates": [[[85.50000002001167, 22.99999997904239], [86.99999998332031, 22.999999990436724], [86.99999998332031, 24.000000024755384], [85.50000002001167, 23.999999979880506], [85.50000002001167, 22.99999997904239]]]}, "id": "00000000000000008c49", "properties": {"name": "NF-45-V-B"}}, {"type": "Feature", "geometry": {"type": "Polygon", "coordinates": [[[84.0000000113116, 21.99999996544356], [85.50000002001167, 21.999999998288185], [85.50000002001167, 22.99999997904239], [84.0000000113116, 22.999999983508946], [84.0000000113116, 21.99999996544356]]]}, "id": "00000000000000008c4a", "properties": {"name": "NF-45-V-C"}}, {"type": "Feature", "geometry": {"type": "Polygon", "coordinates": [[[85.50000002001167, 21.999999998288185], [86.99999998332031, 22.00000001673833], [86.99999998332031, 22.999999990436724], [85.50000002001167, 22.99999997904239], [85.50000002001167, 21.999999998288185]]]}, "id": "00000000000000008c4b", "properties": {"name": "NF-45-V-D"}}, {"type": "Feature", "geometry": {"type": "Polygon", "coordinates": [[[86.99999998332031, 22.999999990436724], [88.4999999705423, 23.000000006710067], [88.4999999705423, 24.000000031369275], [86.99999998332031, 24.000000024755384], [86.99999998332031, 22.999999990436724]]]}, "id": "00000000000000008c4c", "properties": {"name": "NF-45-X-A"}}, {"type": "Feature", "geometry": {"type": "Polygon", "coordinates": [[[88.4999999705423, 23.000000006710067], [89.99999996442611, 23.00000001928069], [89.99999996442611, 24.00000001800227], [88.4999999705423, 24.000000031369275], [88.4999999705423, 23.000000006710067]]]}, "id": "00000000000000008c4d", "properties": {"name": "NF-45-X-B"}}, {"type": "Feature", "geometry": {"type": "Polygon", "coordinates": [[[86.99999998332031, 22.00000001673833], [88.4999999705423, 21.99999997326096], [88.4999999705423, 23.000000006710067], [86.99999998332031, 22.999999990436724], [86.99999998332031, 22.00000001673833]]]}, "id": "00000000000000008c4e", "properties": {"name": "NF-45-X-C"}}, {"type": "Feature", "geometry": {"type": "Polygon", "coordinates": [[[88.4999999705423, 21.99999997326096], [89.99999996442611, 21.999999991202536], [89.99999996442611, 23.00000001928069], [88.4999999705423, 23.000000006710067], [88.4999999705423, 21.99999997326096]]]}, "id": "00000000000000008c4f", "properties": {"name": "NF-45-X-D"}}, {"type": "Feature", "geometry": {"type": "Polygon", "coordinates": [[[84.0000000113116, 21.000000039069786], [85.50000002001167, 21.000000003947473], [85.50000002001167, 21.999999998288185], [84.0000000113116, 21.99999996544356], [84.0000000113116, 21.000000039069786]]]}, "id": "00000000000000008c50", "properties": {"name": "NF-45-Y-A"}}, {"type": "Feature", "geometry": {"type": "Polygon", "coordinates": [[[85.50000002001167, 21.000000003947473], [86.99999998332031, 21.000000010594768], [86.99999998332031, 22.00000001673833], [85.50000002001167, 21.999999998288185], [85.50000002001167, 21.000000003947473]]]}, "id": "00000000000000008c51", "properties": {"name": "NF-45-Y-B"}}, {"type": "Feature", "geometry": {"type": "Polygon", "coordinates": [[[84.0000000113116, 19.99999997760272], [85.50000002001167, 19.999999997418104], [85.50000002001167, 21.000000003947473], [84.0000000113116, 21.000000039069786], [84.0000000113116, 19.99999997760272]]]}, "id": "00000000000000008c52", "properties": {"name": "NF-45-Y-C"}}, {"type": "Feature", "geometry": {"type": "Polygon", "coordinates": [[[85.50000002001167, 19.999999997418104], [86.99999998332031, 20.000000025684837], [86.99999998332031, 21.000000010594768], [85.50000002001167, 21.000000003947473], [85.50000002001167, 19.999999997418104]]]}, "id": "00000000000000008c53", "properties": {"name": "NF-45-Y-D"}}, {"type": "Feature", "geometry": {"type": "Polygon", "coordinates": [[[86.99999998332031, 21.000000010594768], [88.4999999705423, 21.00000002254479], [88.4999999705423, 21.99999997326096], [86.99999998332031, 22.00000001673833], [86.99999998332031, 21.000000010594768]]]}, "id": "00000000000000008c54", "properties": {"name": "NF-45-Z-A"}}, {"type": "Feature", "geometry": {"type": "Polygon", "coordinates": [[[88.4999999705423, 21.00000002254479], [89.99999996442611, 20.999999996209425], [89.99999996442611, 21.999999991202536], [88.4999999705423, 21.99999997326096], [88.4999999705423, 21.00000002254479]]]}, "id": "00000000000000008c55", "properties": {"name": "NF-45-Z-B"}}, {"type": "Feature", "geometry": {"type": "Polygon", "coordinates": [[[86.99999998332031, 20.000000025684837], [88.4999999705423, 19.999999987343145], [88.4999999705423, 21.00000002254479], [86.99999998332031, 21.000000010594768], [86.99999998332031, 20.000000025684837]]]}, "id": "00000000000000008c56", "properties": {"name": "NF-45-Z-C"}}, {"type": "Feature", "geometry": {"type": "Polygon", "coordinates": [[[84.0000000113116, 27.00000000154603], [85.50000002001167, 26.99999996759768], [85.50000002001167, 28.00000003368691], [84.0000000113116, 28.00000003506895], [84.0000000113116, 27.00000000154603]]]}, "id": "00000000000000008c58", "properties": {"name": "NG-45-V-A"}}, {"type": "Feature", "geometry": {"type": "Polygon", "coordinates": [[[84.0000000113116, 26.000000044589424], [85.50000002001167, 25.999999976055115], [85.50000002001167, 26.99999996759768], [84.0000000113116, 27.00000000154603], [84.0000000113116, 26.000000044589424]]]}, "id": "00000000000000008c5a", "properties": {"name": "NG-45-V-C"}}, {"type": "Feature", "geometry": {"type": "Polygon", "coordinates": [[[85.50000002001167, 25.999999976055115], [86.99999998332031, 25.99999997710053], [86.99999998332031, 27.000000020546874], [85.50000002001167, 26.99999996759768], [85.50000002001167, 25.999999976055115]]]}, "id": "00000000000000008c5b", "properties": {"name": "NG-45-V-D"}}, {"type": "Feature", "geometry": {"type": "Polygon", "coordinates": [[[86.99999998332031, 27.000000020546874], [88.4999999705423, 26.999999961651746], [88.4999999705423, 27.99999999693323], [86.99999998332031, 28.000000003520352], [86.99999998332031, 27.000000020546874]]]}, "id": "00000000000000008c5c", "properties": {"name": "NG-45-X-A"}}, {"type": "Feature", "geometry": {"type": "Polygon", "coordinates": [[[88.4999999705423, 26.999999961651746], [89.99999996442611, 26.999999960921823], [89.99999996442611, 27.99999996837075], [88.4999999705423, 27.99999999693323], [88.4999999705423, 26.999999961651746]]]}, "id": "00000000000000008c5d", "properties": {"name": "NG-45-X-B"}}, {"type": "Feature", "geometry": {"type": "Polygon", "coordinates": [[[86.99999998332031, 25.99999997710053], [88.4999999705423, 26.000000026282226], [88.4999999705423, 26.999999961651746], [86.99999998332031, 27.000000020546874], [86.99999998332031, 25.99999997710053]]]}, "id": "00000000000000008c5e", "properties": {"name": "NG-45-X-C"}}, {"type": "Feature", "geometry": {"type": "Polygon", "coordinates": [[[88.4999999705423, 26.000000026282226], [89.99999996442611, 25.999999958295877], [89.99999996442611, 26.999999960921823], [88.4999999705423, 26.999999961651746], [88.4999999705423, 26.000000026282226]]]}, "id": "00000000000000008c5f", "properties": {"name": "NG-45-X-D"}}, {"type": "Feature", "geometry": {"type": "Polygon", "coordinates": [[[84.0000000113116, 24.99999999223716], [85.50000002001167, 25.000000019799824], [85.50000002001167, 25.999999976055115], [84.0000000113116, 26.000000044589424], [84.0000000113116, 24.99999999223716]]]}, "id": "00000000000000008c60", "properties": {"name": "NG-45-Y-A"}}, {"type": "Feature", "geometry": {"type": "Polygon", "coordinates": [[[85.50000002001167, 25.000000019799824], [86.99999998332031, 24.999999957347224], [86.99999998332031, 25.99999997710053], [85.50000002001167, 25.999999976055115], [85.50000002001167, 25.000000019799824]]]}, "id": "00000000000000008c61", "properties": {"name": "NG-45-Y-B"}}, {"type": "Feature", "geometry": {"type": "Polygon", "coordinates": [[[84.0000000113116, 24.000000000299337], [85.50000002001167, 23.999999979880506], [85.50000002001167, 25.000000019799824], [84.0000000113116, 24.99999999223716], [84.0000000113116, 24.000000000299337]]]}, "id": "00000000000000008c62", "properties": {"name": "NG-45-Y-C"}}, {"type": "Feature", "geometry": {"type": "Polygon", "coordinates": [[[85.50000002001167, 23.999999979880506], [86.99999998332031, 24.000000024755384], [86.99999998332031, 24.999999957347224], [85.50000002001167, 25.000000019799824], [85.50000002001167, 23.999999979880506]]]}, "id": "00000000000000008c63", "properties": {"name": "NG-45-Y-D"}}, {"type": "Feature", "geometry": {"type": "Polygon", "coordinates": [[[86.99999998332031, 24.999999957347224], [88.4999999705423, 25.00000002784267], [88.4999999705423, 26.000000026282226], [86.99999998332031, 25.99999997710053], [86.99999998332031, 24.999999957347224]]]}, "id": "00000000000000008c64", "properties": {"name": "NG-45-Z-A"}}, {"type": "Feature", "geometry": {"type": "Polygon", "coordinates": [[[88.4999999705423, 25.00000002784267], [89.99999996442611, 24.999999985218782], [89.99999996442611, 25.999999958295877], [88.4999999705423, 26.000000026282226], [88.4999999705423, 25.00000002784267]]]}, "id": "00000000000000008c65", "properties": {"name": "NG-45-Z-B"}}, {"type": "Feature", "geometry": {"type": "Polygon", "coordinates": [[[86.99999998332031, 24.000000024755384], [88.4999999705423, 24.000000031369275], [88.4999999705423, 25.00000002784267], [86.99999998332031, 24.999999957347224], [86.99999998332031, 24.000000024755384]]]}, "id": "00000000000000008c66", "properties": {"name": "NG-45-Z-C"}}, {"type": "Feature", "geometry": {"type": "Polygon", "coordinates": [[[88.4999999705423, 24.000000031369275], [89.99999996442611, 24.00000001800227], [89.99999996442611, 24.999999985218782], [88.4999999705423, 25.00000002784267], [88.4999999705423, 24.000000031369275]]]}, "id": "00000000000000008c67", "properties": {"name": "NG-45-Z-D"}}, {"type": "Feature", "geometry": {"type": "Polygon", "coordinates": [[[86.99999998332031, 28.000000003520352], [88.4999999705423, 27.99999999693323], [88.4999999705423, 29.000000015751255], [86.99999998332031, 29.000000027099944], [86.99999998332031, 28.000000003520352]]]}, "id": "00000000000000008c76", "properties": {"name": "NH-45-Z-C"}}, {"type": "Feature", "geometry": {"type": "Polygon", "coordinates": [[[88.4999999705423, 27.99999999693323], [89.99999996442611, 27.99999996837075], [89.99999996442611, 29.00000003070217], [88.4999999705423, 29.000000015751255], [88.4999999705423, 27.99999999693323]]]}, "id": "00000000000000008c77", "properties": {"name": "NH-45-Z-D"}}, {"type": "Feature", "geometry": {"type": "Polygon", "coordinates": [[[93.0000000166797, 7.000000026634779], [94.49999997998835, 6.9999999659598755], [94.49999997998835, 8.000000033501959], [93.0000000166797, 7.999999997336372], [93.0000000166797, 7.000000026634779]]]}, "id": "00000000000000008d6c", "properties": {"name": "NB-46-X-A"}}, {"type": "Feature", "geometry": {"type": "Polygon", "coordinates": [[[93.0000000166797, 5.999999968451226], [94.49999997998835, 6.000000030798055], [94.49999997998835, 6.9999999659598755], [93.0000000166797, 7.000000026634779], [93.0000000166797, 5.999999968451226]]]}, "id": "00000000000000008d6e", "properties": {"name": "NB-46-X-C"}}, {"type": "Feature", "geometry": {"type": "Polygon", "coordinates": [[[91.50000002945771, 10.999999980932447], [93.0000000166797, 10.99999997810846], [93.0000000166797, 12.000000040894168], [91.50000002945771, 12.00000003201177], [91.50000002945771, 10.999999980932447]]]}, "id": "00000000000000008d79", "properties": {"name": "NC-46-V-B"}}, {"type": "Feature", "geometry": {"type": "Polygon", "coordinates": [[[91.50000002945771, 10.00000002998803], [93.0000000166797, 9.999999987940784], [93.0000000166797, 10.99999997810846], [91.50000002945771, 10.999999980932447], [91.50000002945771, 10.00000002998803]]]}, "id": "00000000000000008d7b", "properties": {"name": "NC-46-V-D"}}, {"type": "Feature", "geometry": {"type": "Polygon", "coordinates": [[[93.0000000166797, 10.99999997810846], [94.49999997998835, 10.999999968931323], [94.49999997998835, 11.999999992228254], [93.0000000166797, 12.000000040894168], [93.0000000166797, 10.99999997810846]]]}, "id": "00000000000000008d7c", "properties": {"name": "NC-46-X-A"}}, {"type": "Feature", "geometry": {"type": "Polygon", "coordinates": [[[91.50000002945771, 8.999999969705279], [93.0000000166797, 9.000000006687443], [93.0000000166797, 9.999999987940784], [91.50000002945771, 10.00000002998803], [91.50000002945771, 8.999999969705279]]]}, "id": "00000000000000008d81", "properties": {"name": "NC-46-Y-B"}}, {"type": "Feature", "geometry": {"type": "Polygon", "coordinates": [[[91.50000002945771, 7.999999988709842], [93.0000000166797, 7.999999997336372], [93.0000000166797, 9.000000006687443], [91.50000002945771, 8.999999969705279], [91.50000002945771, 7.999999988709842]]]}, "id": "00000000000000008d83", "properties": {"name": "NC-46-Y-D"}}, {"type": "Feature", "geometry": {"type": "Polygon", "coordinates": [[[93.0000000166797, 7.999999997336372], [94.49999997998835, 8.000000033501959], [94.49999997998835, 9.000000010037605], [93.0000000166797, 9.000000006687443], [93.0000000166797, 7.999999997336372]]]}, "id": "00000000000000008d86", "properties": {"name": "NC-46-Z-C"}}, {"type": "Feature", "geometry": {"type": "Polygon", "coordinates": [[[91.50000002945771, 12.999999968546618], [93.0000000166797, 13.000000007586037], [93.0000000166797, 14.000000039721897], [91.50000002945771, 13.999999999133014], [91.50000002945771, 12.999999968546618]]]}, "id": "00000000000000008d91", "properties": {"name": "ND-46-Y-B"}}, {"type": "Feature", "geometry": {"type": "Polygon", "coordinates": [[[91.50000002945771, 12.00000003201177], [93.0000000166797, 12.000000040894168], [93.0000000166797, 13.000000007586037], [91.50000002945771, 12.999999968546618], [91.50000002945771, 12.00000003201177]]]}, "id": "00000000000000008d93", "properties": {"name": "ND-46-Y-D"}}, {"type": "Feature", "geometry": {"type": "Polygon", "coordinates": [[[93.0000000166797, 13.000000007586037], [94.49999997998835, 12.999999974723721], [94.49999997998835, 14.000000021236458], [93.0000000166797, 14.000000039721897], [93.0000000166797, 13.000000007586037]]]}, "id": "00000000000000008d94", "properties": {"name": "ND-46-Z-A"}}, {"type": "Feature", "geometry": {"type": "Polygon", "coordinates": [[[93.0000000166797, 12.000000040894168], [94.49999997998835, 11.999999992228254], [94.49999997998835, 12.999999974723721], [93.0000000166797, 13.000000007586037], [93.0000000166797, 12.000000040894168]]]}, "id": "00000000000000008d96", "properties": {"name": "ND-46-Z-C"}}, {"type": "Feature", "geometry": {"type": "Polygon", "coordinates": [[[89.99999996442611, 23.00000001928069], [91.50000002945771, 23.000000006710067], [91.50000002945771, 24.000000031369275], [89.99999996442611, 24.00000001800227], [89.99999996442611, 23.00000001928069]]]}, "id": "00000000000000008da8", "properties": {"name": "NF-46-V-A"}}, {"type": "Feature", "geometry": {"type": "Polygon", "coordinates": [[[91.50000002945771, 23.000000006710067], [93.0000000166797, 22.999999990436724], [93.0000000166797, 24.000000024755384], [91.50000002945771, 24.000000031369275], [91.50000002945771, 23.000000006710067]]]}, "id": "00000000000000008da9", "properties": {"name": "NF-46-V-B"}}, {"type": "Feature", "geometry": {"type": "Polygon", "coordinates": [[[91.50000002945771, 21.99999997326096], [93.0000000166797, 22.00000001673833], [93.0000000166797, 22.999999990436724], [91.50000002945771, 23.000000006710067], [91.50000002945771, 21.99999997326096]]]}, "id": "00000000000000008dab", "properties": {"name": "NF-46-V-D"}}, {"type": "Feature", "geometry": {"type": "Polygon", "coordinates": [[[93.0000000166797, 22.999999990436724], [94.49999997998835, 22.99999997904239], [94.49999997998835, 23.999999979880506], [93.0000000166797, 24.000000024755384], [93.0000000166797, 22.999999990436724]]]}, "id": "00000000000000008dac", "properties": {"name": "NF-46-X-A"}}, {"type": "Feature", "geometry": {"type": "Polygon", "coordinates": [[[93.0000000166797, 22.00000001673833], [94.49999997998835, 21.999999998288185], [94.49999997998835, 22.99999997904239], [93.0000000166797, 22.999999990436724], [93.0000000166797, 22.00000001673833]]]}, "id": "00000000000000008dae", "properties": {"name": "NF-46-X-C"}}, {"type": "Feature", "geometry": {"type": "Polygon", "coordinates": [[[91.50000002945771, 21.00000002254479], [93.0000000166797, 21.000000010594768], [93.0000000166797, 22.00000001673833], [91.50000002945771, 21.99999997326096], [91.50000002945771, 21.00000002254479]]]}, "id": "00000000000000008db1", "properties": {"name": "NF-46-Y-B"}}, {"type": "Feature", "geometry": {"type": "Polygon", "coordinates": [[[93.0000000166797, 21.000000010594768], [94.49999997998835, 21.000000003947473], [94.49999997998835, 21.999999998288185], [93.0000000166797, 22.00000001673833], [93.0000000166797, 21.000000010594768]]]}, "id": "00000000000000008db4", "properties": {"name": "NF-46-Z-A"}}, {"type": "Feature", "geometry": {"type": "Polygon", "coordinates": [[[91.50000002945771, 26.999999961651746], [93.0000000166797, 27.000000020546874], [93.0000000166797, 28.000000003520352], [91.50000002945771, 27.99999999693323], [91.50000002945771, 26.999999961651746]]]}, "id": "00000000000000008db9", "properties": {"name": "NG-46-V-B"}}, {"type": "Feature", "geometry": {"type": "Polygon", "coordinates": [[[89.99999996442611, 25.999999958295877], [91.50000002945771, 26.000000026282226], [91.50000002945771, 26.999999961651746], [89.99999996442611, 26.999999960921823], [89.99999996442611, 25.999999958295877]]]}, "id": "00000000000000008dba", "properties": {"name": "NG-46-V-C"}}, {"type": "Feature", "geometry": {"type": "Polygon", "coordinates": [[[91.50000002945771, 26.000000026282226], [93.0000000166797, 25.99999997710053], [93.0000000166797, 27.000000020546874], [91.50000002945771, 26.999999961651746], [91.50000002945771, 26.000000026282226]]]}, "id": "00000000000000008dbb", "properties": {"name": "NG-46-V-D"}}, {"type": "Feature", "geometry": {"type": "Polygon", "coordinates": [[[93.0000000166797, 27.000000020546874], [94.49999997998835, 26.99999996759768], [94.49999997998835, 28.00000003368691], [93.0000000166797, 28.000000003520352], [93.0000000166797, 27.000000020546874]]]}, "id": "00000000000000008dbc", "properties": {"name": "NG-46-X-A"}}, {"type": "Feature", "geometry": {"type": "Polygon", "coordinates": [[[94.49999997998835, 26.99999996759768], [95.99999998868842, 27.00000000154603], [95.99999998868842, 28.00000003506895], [94.49999997998835, 28.00000003368691], [94.49999997998835, 26.99999996759768]]]}, "id": "00000000000000008dbd", "properties": {"name": "NG-46-X-B"}}, {"type": "Feature", "geometry": {"type": "Polygon", "coordinates": [[[93.0000000166797, 25.99999997710053], [94.49999997998835, 25.999999976055115], [94.49999997998835, 26.99999996759768], [93.0000000166797, 27.000000020546874], [93.0000000166797, 25.99999997710053]]]}, "id": "00000000000000008dbe", "properties": {"name": "NG-46-X-C"}}, {"type": "Feature", "geometry": {"type": "Polygon", "coordinates": [[[94.49999997998835, 25.999999976055115], [95.99999998868842, 26.000000044589424], [95.99999998868842, 27.00000000154603], [94.49999997998835, 26.99999996759768], [94.49999997998835, 25.999999976055115]]]}, "id": "00000000000000008dbf", "properties": {"name": "NG-46-X-D"}}, {"type": "Feature", "geometry": {"type": "Polygon", "coordinates": [[[89.99999996442611, 24.999999985218782], [91.50000002945771, 25.00000002784267], [91.50000002945771, 26.000000026282226], [89.99999996442611, 25.999999958295877], [89.99999996442611, 24.999999985218782]]]}, "id": "00000000000000008dc0", "properties": {"name": "NG-46-Y-A"}}, {"type": "Feature", "geometry": {"type": "Polygon", "coordinates": [[[91.50000002945771, 25.00000002784267], [93.0000000166797, 24.999999957347224], [93.0000000166797, 25.99999997710053], [91.50000002945771, 26.000000026282226], [91.50000002945771, 25.00000002784267]]]}, "id": "00000000000000008dc1", "properties": {"name": "NG-46-Y-B"}}, {"type": "Feature", "geometry": {"type": "Polygon", "coordinates": [[[89.99999996442611, 24.00000001800227], [91.50000002945771, 24.000000031369275], [91.50000002945771, 25.00000002784267], [89.99999996442611, 24.999999985218782], [89.99999996442611, 24.00000001800227]]]}, "id": "00000000000000008dc2", "properties": {"name": "NG-46-Y-C"}}, {"type": "Feature", "geometry": {"type": "Polygon", "coordinates": [[[91.50000002945771, 24.000000031369275], [93.0000000166797, 24.000000024755384], [93.0000000166797, 24.999999957347224], [91.50000002945771, 25.00000002784267], [91.50000002945771, 24.000000031369275]]]}, "id": "00000000000000008dc3", "properties": {"name": "NG-46-Y-D"}}, {"type": "Feature", "geometry": {"type": "Polygon", "coordinates": [[[93.0000000166797, 24.999999957347224], [94.49999997998835, 25.000000019799824], [94.49999997998835, 25.999999976055115], [93.0000000166797, 25.99999997710053], [93.0000000166797, 24.999999957347224]]]}, "id": "00000000000000008dc4", "properties": {"name": "NG-46-Z-A"}}, {"type": "Feature", "geometry": {"type": "Polygon", "coordinates": [[[94.49999997998835, 25.000000019799824], [95.99999998868842, 24.99999999223716], [95.99999998868842, 26.000000044589424], [94.49999997998835, 25.999999976055115], [94.49999997998835, 25.000000019799824]]]}, "id": "00000000000000008dc5", "properties": {"name": "NG-46-Z-B"}}, {"type": "Feature", "geometry": {"type": "Polygon", "coordinates": [[[93.0000000166797, 24.000000024755384], [94.49999997998835, 23.999999979880506], [94.49999997998835, 25.000000019799824], [93.0000000166797, 24.999999957347224], [93.0000000166797, 24.000000024755384]]]}, "id": "00000000000000008dc6", "properties": {"name": "NG-46-Z-C"}}, {"type": "Feature", "geometry": {"type": "Polygon", "coordinates": [[[94.49999997998835, 23.999999979880506], [95.99999998868842, 24.000000000299337], [95.99999998868842, 24.99999999223716], [94.49999997998835, 25.000000019799824], [94.49999997998835, 23.999999979880506]]]}, "id": "00000000000000008dc7", "properties": {"name": "NG-46-Z-D"}}, {"type": "Feature", "geometry": {"type": "Polygon", "coordinates": [[[91.50000002945771, 27.99999999693323], [93.0000000166797, 28.000000003520352], [93.0000000166797, 29.000000027099944], [91.50000002945771, 29.000000015751255], [91.50000002945771, 27.99999999693323]]]}, "id": "00000000000000008dd3", "properties": {"name": "NH-46-Y-D"}}, {"type": "Feature", "geometry": {"type": "Polygon", "coordinates": [[[93.0000000166797, 29.000000027099944], [94.49999997998835, 28.99999997796362], [94.49999997998835, 30.000000042589367], [93.0000000166797, 29.999999988564912], [93.0000000166797, 29.000000027099944]]]}, "id": "00000000000000008dd4", "properties": {"name": "NH-46-Z-A"}}, {"type": "Feature", "geometry": {"type": "Polygon", "coordinates": [[[94.49999997998835, 28.99999997796362], [95.99999998868842, 29.00000002682043], [95.99999998868842, 29.999999968696507], [94.49999997998835, 30.000000042589367], [94.49999997998835, 28.99999997796362]]]}, "id": "00000000000000008dd5", "properties": {"name": "NH-46-Z-B"}}, {"type": "Feature", "geometry": {"type": "Polygon", "coordinates": [[[93.0000000166797, 28.000000003520352], [94.49999997998835, 28.00000003368691], [94.49999997998835, 28.99999997796362], [93.0000000166797, 29.000000027099944], [93.0000000166797, 28.000000003520352]]]}, "id": "00000000000000008dd6", "properties": {"name": "NH-46-Z-C"}}, {"type": "Feature", "geometry": {"type": "Polygon", "coordinates": [[[94.49999997998835, 28.00000003368691], [95.99999998868842, 28.00000003506895], [95.99999998868842, 29.00000002682043], [94.49999997998835, 28.99999997796362], [94.49999997998835, 28.00000003368691]]]}, "id": "00000000000000008dd7", "properties": {"name": "NH-46-Z-D"}}, {"type": "Feature", "geometry": {"type": "Polygon", "coordinates": [[[95.99999998868842, 27.00000000154603], [97.5000000139048, 26.999999980531136], [97.5000000139048, 28.000000024747617], [95.99999998868842, 28.00000003506895], [95.99999998868842, 27.00000000154603]]]}, "id": "00000000000000008f18", "properties": {"name": "NG-47-V-A"}}, {"type": "Feature", "geometry": {"type": "Polygon", "coordinates": [[[95.99999998868842, 29.00000002682043], [97.5000000139048, 29.000000015526854], [97.5000000139048, 29.999999980627017], [95.99999998868842, 29.999999968696507], [95.99999998868842, 29.00000002682043]]]}, "id": "00000000000000008f30", "properties": {"name": "NH-47-Y-A"}}, {"type": "Feature", "geometry": {"type": "Polygon", "coordinates": [[[95.99999998868842, 28.00000003506895], [97.5000000139048, 28.000000024747617], [97.5000000139048, 29.000000015526854], [95.99999998868842, 29.00000002682043], [95.99999998868842, 28.00000003506895]]]}, "id": "00000000000000008f32", "properties": {"name": "NH-47-Y-C"}}]}